None,region_id,region_type,region,zip,state,city,county,community
511,99380,zip,97635; CA; Modoc County; New Pine Creek,97635,CA,Modoc County,New Pine Creek,
932,98673,zip,96162; CA; Truckee-Grass Valley; Nevada County; Truckee,96162,CA,Truckee-Grass Valley,Nevada County,Truckee
933,98672,zip,96161; CA; Truckee-Grass Valley; Nevada County; Truckee,96161,CA,Truckee-Grass Valley,Nevada County,Truckee
936,98662,zip,96148; CA; Sacramento--Roseville--Arden-Arcade; Placer County; Tahoe Vista,96148,CA,Sacramento--Roseville--Arden-Arcade,Placer County,Tahoe Vista
937,98661,zip,96146; CA; Sacramento--Roseville--Arden-Arcade; Placer County; Tahoe City,96146,CA,Sacramento--Roseville--Arden-Arcade,Placer County,Tahoe City
938,98660,zip,96145; CA; Sacramento--Roseville--Arden-Arcade; Placer County; Tahoe City,96145,CA,Sacramento--Roseville--Arden-Arcade,Placer County,Tahoe City
940,98659,zip,96143; CA; Sacramento--Roseville--Arden-Arcade; Placer County; Kings Beach,96143,CA,Sacramento--Roseville--Arden-Arcade,Placer County,Kings Beach
941,98658,zip,96142; CA; Sacramento--Roseville--Arden-Arcade; El Dorado County; Tahoma,96142,CA,Sacramento--Roseville--Arden-Arcade,El Dorado County,Tahoma
942,98657,zip,96141; CA; Sacramento--Roseville--Arden-Arcade; Placer County; Homewood,96141,CA,Sacramento--Roseville--Arden-Arcade,Placer County,Homewood
943,98656,zip,96140; CA; Sacramento--Roseville--Arden-Arcade; Placer County; Carnelian Bay,96140,CA,Sacramento--Roseville--Arden-Arcade,Placer County,Carnelian Bay
944,98655,zip,96137; CA; Plumas County; Westwood,96137,CA,Plumas County,Westwood,
945,98654,zip,96136; CA; Susanville; Lassen County; Wendel,96136,CA,Susanville,Lassen County,Wendel
946,98653,zip,96135; CA; Plumas County; Chilcoot,96135,CA,Plumas County,Chilcoot,
947,98652,zip,96134; CA; Modoc County; Tulelake,96134,CA,Modoc County,Tulelake,
948,98651,zip,96133; CA; Mono County; Coleville,96133,CA,Mono County,Coleville,
949,98650,zip,96132; CA; Susanville; Lassen County; Termo,96132,CA,Susanville,Lassen County,Termo
950,98649,zip,96130; CA; Susanville; Lassen County,96130,CA,Susanville,Lassen County,
951,98648,zip,96129; CA; Plumas County; Beckwourth,96129,CA,Plumas County,Beckwourth,
952,98647,zip,96128; CA; Susanville; Lassen County; Standish,96128,CA,Susanville,Lassen County,Standish
953,98646,zip,96127; CA; Susanville; Lassen County; Janesville,96127,CA,Susanville,Lassen County,Janesville
954,98645,zip,96126; CA; Sierra County; Sierraville,96126,CA,Sierra County,Sierraville,
955,98644,zip,96125; CA; Sierra County; Sierra City,96125,CA,Sierra County,Sierra City,
956,98643,zip,96124; CA; Sierra County; Calpine,96124,CA,Sierra County,Calpine,
957,98642,zip,96123; CA; Susanville; Lassen County; Ravendale,96123,CA,Susanville,Lassen County,Ravendale
958,98641,zip,96122; CA; Plumas County; Portola,96122,CA,Plumas County,Portola,
959,98640,zip,96121; CA; Susanville; Lassen County; Milford,96121,CA,Susanville,Lassen County,Milford
961,98639,zip,96120; CA; Alpine County; Kirkwood,96120,CA,Alpine County,Kirkwood,
962,98638,zip,96119; CA; Susanville; Lassen County; Madeline,96119,CA,Susanville,Lassen County,Madeline
963,98637,zip,96118; CA; Sierra County; Loyalton,96118,CA,Sierra County,Loyalton,
964,98636,zip,96117; CA; Susanville; Lassen County; Litchfield,96117,CA,Susanville,Lassen County,Litchfield
965,98635,zip,96116; CA; Modoc County; Likely,96116,CA,Modoc County,Likely,
966,98634,zip,96115; CA; Modoc County; Lake City,96115,CA,Modoc County,Lake City,
967,98633,zip,96114; CA; Susanville; Lassen County; Janesville,96114,CA,Susanville,Lassen County,Janesville
968,98632,zip,96113; CA; Susanville; Lassen County; Doyle,96113,CA,Susanville,Lassen County,Doyle
969,98631,zip,96112; CA; Modoc County; Fort Bidwell,96112,CA,Modoc County,Fort Bidwell,
970,98630,zip,96111; CA; Truckee-Grass Valley; Nevada County; Truckee,96111,CA,Truckee-Grass Valley,Nevada County,Truckee
971,98629,zip,96110; CA; Modoc County; Cedarville,96110,CA,Modoc County,Cedarville,
972,98628,zip,96109; CA; Susanville; Lassen County; Doyle,96109,CA,Susanville,Lassen County,Doyle
973,98627,zip,96108; CA; Modoc County; New Pine Creek,96108,CA,Modoc County,New Pine Creek,
974,98626,zip,96107; CA; Mono County; Coleville,96107,CA,Mono County,Coleville,
975,98625,zip,96106; CA; Plumas County; Clio,96106,CA,Plumas County,Clio,
976,98624,zip,96105; CA; Plumas County; Chilcoot,96105,CA,Plumas County,Chilcoot,
977,98623,zip,96104; CA; Modoc County; Cedarville,96104,CA,Modoc County,Cedarville,
978,98622,zip,96103; CA; Plumas County; Graeagle,96103,CA,Plumas County,Graeagle,
979,98621,zip,96101; CA; Modoc County; Alturas,96101,CA,Modoc County,Alturas,
980,98619,zip,96097; CA; Siskiyou County; Yreka,96097,CA,Siskiyou County,Yreka,
981,98618,zip,96096; CA; Redding; Shasta County; Whitmore,96096,CA,Redding,Shasta County,Whitmore
982,98616,zip,96094; CA; Siskiyou County; Weed,96094,CA,Siskiyou County,Weed,
983,98615,zip,96093; CA; Trinity County; Weaverville,96093,CA,Trinity County,Weaverville,
984,98614,zip,96092; CA; Chico; Butte County,96092,CA,Chico,Butte County,
985,98613,zip,96091; CA; Trinity County; Trinity Center,96091,CA,Trinity County,Trinity Center,
986,98612,zip,96090; CA; Red Bluff; Tehama County; Tehama,96090,CA,Red Bluff,Tehama County,Tehama
987,98611,zip,96089; CA; Redding; Shasta County; Shasta Lake,96089,CA,Redding,Shasta County,Shasta Lake
988,98610,zip,96088; CA; Redding; Shasta County; Shingletown,96088,CA,Redding,Shasta County,Shingletown
989,98609,zip,96087; CA; Redding; Shasta County,96087,CA,Redding,Shasta County,
990,98608,zip,96086; CA; Siskiyou County; Seiad Valley,96086,CA,Siskiyou County,Seiad Valley,
991,98607,zip,96085; CA; Siskiyou County; Klamath River,96085,CA,Siskiyou County,Klamath River,
992,98606,zip,96084; CA; Redding; Shasta County; Round Mountain,96084,CA,Redding,Shasta County,Round Mountain
993,98605,zip,96080; CA; Red Bluff; Tehama County,96080,CA,Red Bluff,Tehama County,
994,98602,zip,96076; CA; Trinity County; Hayfork,96076,CA,Trinity County,Hayfork,
995,98601,zip,96075; CA; Red Bluff; Tehama County; Paynes Creek,96075,CA,Red Bluff,Tehama County,Paynes Creek
998,98599,zip,96073; CA; Redding; Shasta County; Palo Cedro,96073,CA,Redding,Shasta County,Palo Cedro
999,98598,zip,96071; CA; Redding; Shasta County; Old Station,96071,CA,Redding,Shasta County,Old Station
1000,98596,zip,96069; CA; Redding; Shasta County; Oak Run,96069,CA,Redding,Shasta County,Oak Run
1001,98595,zip,96068; CA; Susanville; Lassen County; Nubieber,96068,CA,Susanville,Lassen County,Nubieber
1002,98594,zip,96067; CA; Siskiyou County; Mount Shasta,96067,CA,Siskiyou County,Mount Shasta,
1003,98593,zip,96065; CA; Redding; Shasta County; Montgomery Creek,96065,CA,Redding,Shasta County,Montgomery Creek
1004,98592,zip,96064; CA; Siskiyou County; Montague,96064,CA,Siskiyou County,Montague,
1005,98591,zip,96063; CA; Red Bluff; Tehama County; Mill Creek,96063,CA,Red Bluff,Tehama County,Mill Creek
1006,98590,zip,96062; CA; Redding; Shasta County; Millville,96062,CA,Redding,Shasta County,Millville
1008,98589,zip,96061; CA; Red Bluff; Tehama County; Mill Creek,96061,CA,Red Bluff,Tehama County,Mill Creek
1009,98588,zip,96059; CA; Red Bluff; Tehama County; Manton,96059,CA,Red Bluff,Tehama County,Manton
1010,98587,zip,96058; CA; Siskiyou County; Macdoel,96058,CA,Siskiyou County,Macdoel,
1011,98586,zip,96057; CA; Siskiyou County; McCloud,96057,CA,Siskiyou County,McCloud,
1012,98585,zip,96056; CA; Susanville; Lassen County; McArthur,96056,CA,Susanville,Lassen County,McArthur
1013,98584,zip,96055; CA; Red Bluff; Tehama County; Los Molinos,96055,CA,Red Bluff,Tehama County,Los Molinos
1014,98583,zip,96054; CA; Modoc County; Lookout,96054,CA,Modoc County,Lookout,
1015,98582,zip,96052; CA; Trinity County; Lewiston,96052,CA,Trinity County,Lewiston,
1016,98581,zip,96051; CA; Redding; Shasta County; Lakehead,96051,CA,Redding,Shasta County,Lakehead
1017,98580,zip,96050; CA; Siskiyou County; Klamath River,96050,CA,Siskiyou County,Klamath River,
1018,98578,zip,96048; CA; Trinity County; Junction City,96048,CA,Trinity County,Junction City,
1019,98577,zip,96047; CA; Redding; Shasta County; Igo,96047,CA,Redding,Shasta County,Igo
1020,98576,zip,96046; CA; Trinity County; Hyampom,96046,CA,Trinity County,Hyampom,
1021,98575,zip,96044; CA; Siskiyou County; Hornbrook,96044,CA,Siskiyou County,Hornbrook,
1022,98574,zip,96041; CA; Trinity County; Hayfork,96041,CA,Trinity County,Hayfork,
1023,98573,zip,96040; CA; Redding; Shasta County; Hat Creek,96040,CA,Redding,Shasta County,Hat Creek
1024,98572,zip,96039; CA; Siskiyou County; Happy Camp,96039,CA,Siskiyou County,Happy Camp,
1025,98571,zip,96038; CA; Siskiyou County; Grenada,96038,CA,Siskiyou County,Grenada,
1026,98570,zip,96037; CA; Siskiyou County; Etna,96037,CA,Siskiyou County,Etna,
1028,98569,zip,96035; CA; Red Bluff; Tehama County; Gerber,96035,CA,Red Bluff,Tehama County,Gerber
1029,98568,zip,96034; CA; Siskiyou County; Gazelle,96034,CA,Siskiyou County,Gazelle,
1030,98567,zip,96033; CA; Redding; Shasta County; French Gulch,96033,CA,Redding,Shasta County,French Gulch
1031,98566,zip,96032; CA; Siskiyou County; Fort Jones,96032,CA,Siskiyou County,Fort Jones,
1032,98565,zip,96031; CA; Siskiyou County; Etna,96031,CA,Siskiyou County,Etna,
1033,98564,zip,96029; CA; Red Bluff; Tehama County; Corning,96029,CA,Red Bluff,Tehama County,Corning
1034,98563,zip,96028; CA; Redding; Shasta County; Fall River Mills,96028,CA,Redding,Shasta County,Fall River Mills
1035,98562,zip,96027; CA; Siskiyou County; Etna,96027,CA,Siskiyou County,Etna,
1036,98561,zip,96025; CA; Siskiyou County; Dunsmuir,96025,CA,Siskiyou County,Dunsmuir,
1037,98560,zip,96024; CA; Trinity County; Douglas City,96024,CA,Trinity County,Douglas City,
1038,98559,zip,96023; CA; Siskiyou County; Dorris,96023,CA,Siskiyou County,Dorris,
1039,98558,zip,96022; CA; Red Bluff; Tehama County; Cottonwood,96022,CA,Red Bluff,Tehama County,Cottonwood
1040,98557,zip,96021; CA; Red Bluff; Tehama County; Corning,96021,CA,Red Bluff,Tehama County,Corning
1041,98556,zip,96020; CA; Plumas County; Chester,96020,CA,Plumas County,Chester,
1042,98555,zip,96019; CA; Redding; Shasta County; Shasta Lake,96019,CA,Redding,Shasta County,Shasta Lake
1043,98554,zip,96017; CA; Redding; Shasta County; Castella,96017,CA,Redding,Shasta County,Castella
1044,98553,zip,96016; CA; Redding; Shasta County; Cassel,96016,CA,Redding,Shasta County,Cassel
1045,98552,zip,96015; CA; Modoc County; Canby,96015,CA,Modoc County,Canby,
1046,98551,zip,96014; CA; Siskiyou County; Callahan,96014,CA,Siskiyou County,Callahan,
1047,98550,zip,96013; CA; Redding; Shasta County; Burney,96013,CA,Redding,Shasta County,Burney
1048,98549,zip,96011; CA; Redding; Shasta County; Big Bend,96011,CA,Redding,Shasta County,Big Bend
1049,98548,zip,96010; CA; Trinity County; Big Bar,96010,CA,Trinity County,Big Bar,
1050,98547,zip,96009; CA; Susanville; Lassen County; Bieber,96009,CA,Susanville,Lassen County,Bieber
1051,98546,zip,96008; CA; Redding; Shasta County; Bella Vista,96008,CA,Redding,Shasta County,Bella Vista
1052,98545,zip,96007; CA; Redding; Shasta County; Anderson,96007,CA,Redding,Shasta County,Anderson
1053,98544,zip,96006; CA; Modoc County; Adin,96006,CA,Modoc County,Adin,
1054,98543,zip,96003; CA; Redding; Shasta County,96003,CA,Redding,Shasta County,
1055,98542,zip,96002; CA; Redding; Shasta County,96002,CA,Redding,Shasta County,
1056,98541,zip,96001; CA; Redding; Shasta County,96001,CA,Redding,Shasta County,
1057,98540,zip,95993; CA; Yuba City; Sutter County,95993,CA,Yuba City,Sutter County,
1059,98538,zip,95991; CA; Yuba City; Sutter County,95991,CA,Yuba City,Sutter County,
1060,98537,zip,95988; CA; Glenn County; Willows,95988,CA,Glenn County,Willows,
1061,98536,zip,95987; CA; Colusa County; Williams,95987,CA,Colusa County,Williams,
1062,98535,zip,95986; CA; Truckee-Grass Valley; Nevada County; Washington,95986,CA,Truckee-Grass Valley,Nevada County,Washington
1063,98534,zip,95984; CA; Plumas County; Twain,95984,CA,Plumas County,Twain,
1064,98533,zip,95983; CA; Plumas County; Taylorsville,95983,CA,Plumas County,Taylorsville,
1065,98532,zip,95982; CA; Yuba City; Sutter County; Sutter,95982,CA,Yuba City,Sutter County,Sutter
1066,98531,zip,95981; CA; Plumas County; Strawberry Valley,95981,CA,Plumas County,Strawberry Valley,
1067,98530,zip,95980; CA; Plumas County; Tobin,95980,CA,Plumas County,Tobin,
1068,98529,zip,95979; CA; Colusa County; Stonyford,95979,CA,Colusa County,Stonyford,
1069,98528,zip,95978; CA; Chico; Butte County; Stirling City,95978,CA,Chico,Butte County,Stirling City
1070,98527,zip,95977; CA; Truckee-Grass Valley; Nevada County; Smartsville,95977,CA,Truckee-Grass Valley,Nevada County,Smartsville
1071,98525,zip,95975; CA; Truckee-Grass Valley; Nevada County; Rough and Ready,95975,CA,Truckee-Grass Valley,Nevada County,Rough and Ready
1072,98524,zip,95974; CA; Chico; Butte County; Richvale,95974,CA,Chico,Butte County,Richvale
1073,98523,zip,95973; CA; Chico; Butte County,95973,CA,Chico,Butte County,
1074,98522,zip,95972; CA; Chico; Butte County; Bangor,95972,CA,Chico,Butte County,Bangor
1075,98521,zip,95971; CA; Plumas County; Quincy,95971,CA,Plumas County,Quincy,
1076,98520,zip,95970; CA; Colusa County; Colusa,95970,CA,Colusa County,Colusa,
1078,98519,zip,95969; CA; Chico; Butte County; Paradise,95969,CA,Chico,Butte County,Paradise
1079,98518,zip,95968; CA; Chico; Butte County; Palermo,95968,CA,Chico,Butte County,Palermo
1080,98516,zip,95966; CA; Chico; Butte County; Oroville,95966,CA,Chico,Butte County,Oroville
1081,98515,zip,95965; CA; Chico; Butte County; Oroville,95965,CA,Chico,Butte County,Oroville
1082,98514,zip,95963; CA; Glenn County; Orland,95963,CA,Glenn County,Orland,
1083,98513,zip,95962; CA; Yuba City; Yuba County; Oregon House,95962,CA,Yuba City,Yuba County,Oregon House
1084,98512,zip,95961; CA; Yuba City; Yuba County; Olivehurst,95961,CA,Yuba City,Yuba County,Olivehurst
1085,98511,zip,95960; CA; Truckee-Grass Valley; Nevada County; North San Juan,95960,CA,Truckee-Grass Valley,Nevada County,North San Juan
1086,98510,zip,95959; CA; Truckee-Grass Valley; Nevada County; Nevada City,95959,CA,Truckee-Grass Valley,Nevada County,Nevada City
1087,98509,zip,95958; CA; Chico; Butte County; Nelson,95958,CA,Chico,Butte County,Nelson
1088,98508,zip,95957; CA; Yuba City; Sutter County; Meridian,95957,CA,Yuba City,Sutter County,Meridian
1089,98507,zip,95956; CA; Plumas County; Meadow Valley,95956,CA,Plumas County,Meadow Valley,
1090,98506,zip,95955; CA; Colusa County; Maxwell,95955,CA,Colusa County,Maxwell,
1091,98505,zip,95954; CA; Chico; Butte County; Magalia,95954,CA,Chico,Butte County,Magalia
1092,98504,zip,95953; CA; Yuba City; Sutter County; Live Oak,95953,CA,Yuba City,Sutter County,Live Oak
1093,98503,zip,95951; CA; Glenn County; Hamilton City,95951,CA,Glenn County,Hamilton City,
1094,98502,zip,95950; CA; Colusa County; Grimes,95950,CA,Colusa County,Grimes,
1095,98501,zip,95949; CA; Truckee-Grass Valley; Nevada County; Grass Valley,95949,CA,Truckee-Grass Valley,Nevada County,Grass Valley
1096,98500,zip,95948; CA; Chico; Butte County; Gridley,95948,CA,Chico,Butte County,Gridley
1099,98499,zip,95947; CA; Plumas County; Greenville,95947,CA,Plumas County,Greenville,
1100,98498,zip,95946; CA; Truckee-Grass Valley; Nevada County; Penn Valley,95946,CA,Truckee-Grass Valley,Nevada County,Penn Valley
1101,98497,zip,95945; CA; Truckee-Grass Valley; Nevada County; Grass Valley,95945,CA,Truckee-Grass Valley,Nevada County,Grass Valley
1102,98496,zip,95944; CA; Sierra County; Downieville,95944,CA,Sierra County,Downieville,
1103,98495,zip,95943; CA; Glenn County; Glenn,95943,CA,Glenn County,Glenn,
1104,98494,zip,95942; CA; Chico; Butte County; Forest Ranch,95942,CA,Chico,Butte County,Forest Ranch
1105,98493,zip,95941; CA; Chico; Butte County; Forbestown,95941,CA,Chico,Butte County,Forbestown
1106,98491,zip,95939; CA; Glenn County; Elk Creek,95939,CA,Glenn County,Elk Creek,
1107,98490,zip,95938; CA; Chico; Butte County; Durham,95938,CA,Chico,Butte County,Durham
1108,98489,zip,95937; CA; Colusa County; Arbuckle,95937,CA,Colusa County,Arbuckle,
1109,98488,zip,95936; CA; Sierra County; Downieville,95936,CA,Sierra County,Downieville,
1110,98487,zip,95935; CA; Yuba City; Yuba County; Dobbins,95935,CA,Yuba City,Yuba County,Dobbins
1111,98486,zip,95934; CA; Plumas County; Greenville,95934,CA,Plumas County,Greenville,
1112,98485,zip,95932; CA; Colusa County; Colusa,95932,CA,Colusa County,Colusa,
1113,98484,zip,95930; CA; Chico; Butte County; Clipper Mills,95930,CA,Chico,Butte County,Clipper Mills
1114,98482,zip,95928; CA; Chico; Butte County,95928,CA,Chico,Butte County,
1115,98480,zip,95926; CA; Chico; Butte County,95926,CA,Chico,Butte County,
1117,98479,zip,95925; CA; Chico; Butte County; Forbestown,95925,CA,Chico,Butte County,Forbestown
1118,98477,zip,95923; CA; Plumas County; Canyon Dam,95923,CA,Plumas County,Canyon Dam,
1119,98476,zip,95922; CA; Yuba City; Yuba County; Camptonville,95922,CA,Yuba City,Yuba County,Camptonville
1120,98475,zip,95920; CA; Glenn County; Butte City,95920,CA,Glenn County,Butte City,
1121,98474,zip,95919; CA; Yuba City; Yuba County; Brownsville,95919,CA,Yuba City,Yuba County,Brownsville
1122,98473,zip,95918; CA; Yuba City; Yuba County; Browns Valley,95918,CA,Yuba City,Yuba County,Browns Valley
1123,98472,zip,95917; CA; Chico; Butte County; Biggs,95917,CA,Chico,Butte County,Biggs
1124,98471,zip,95916; CA; Chico; Butte County; Berry Creek,95916,CA,Chico,Butte County,Berry Creek
1125,98469,zip,95914; CA; Chico; Butte County; Bangor,95914,CA,Chico,Butte County,Bangor
1126,98468,zip,95913; CA; Glenn County; Willows,95913,CA,Glenn County,Willows,
1127,98467,zip,95912; CA; Colusa County; Arbuckle,95912,CA,Colusa County,Arbuckle,
1128,98464,zip,95901; CA; Yuba City; Yuba County; Marysville,95901,CA,Yuba City,Yuba County,Marysville
1134,98447,zip,95838; CA; Sacramento--Roseville--Arden-Arcade; Sacramento County; Sacramento,95838,CA,Sacramento--Roseville--Arden-Arcade,Sacramento County,Sacramento
1135,98446,zip,95837; CA; Yuba City; Sutter County; Nicolaus,95837,CA,Yuba City,Sutter County,Nicolaus
1139,98441,zip,95832; CA; Sacramento--Roseville--Arden-Arcade; Sacramento County; Sacramento,95832,CA,Sacramento--Roseville--Arden-Arcade,Sacramento County,Sacramento
1142,98439,zip,95830; CA; Sacramento--Roseville--Arden-Arcade; Sacramento County; Elk Grove,95830,CA,Sacramento--Roseville--Arden-Arcade,Sacramento County,Elk Grove
1143,98438,zip,95829; CA; Sacramento--Roseville--Arden-Arcade; Sacramento County; Sacramento,95829,CA,Sacramento--Roseville--Arden-Arcade,Sacramento County,Sacramento
1145,98436,zip,95827; CA; Sacramento--Roseville--Arden-Arcade; Sacramento County; Rancho Cordova,95827,CA,Sacramento--Roseville--Arden-Arcade,Sacramento County,Rancho Cordova
1148,98433,zip,95824; CA; Sacramento--Roseville--Arden-Arcade; Sacramento County; Sacramento,95824,CA,Sacramento--Roseville--Arden-Arcade,Sacramento County,Sacramento
1155,98427,zip,95818; CA; Sacramento--Roseville--Arden-Arcade; Sacramento County; Sacramento,95818,CA,Sacramento--Roseville--Arden-Arcade,Sacramento County,Sacramento
1157,98425,zip,95816; CA; Sacramento--Roseville--Arden-Arcade; Sacramento County; Sacramento,95816,CA,Sacramento--Roseville--Arden-Arcade,Sacramento County,Sacramento
1159,98423,zip,95814; CA; Sacramento--Roseville--Arden-Arcade; Sacramento County; Sacramento,95814,CA,Sacramento--Roseville--Arden-Arcade,Sacramento County,Sacramento
1161,98418,zip,95776; CA; Sacramento--Roseville--Arden-Arcade; Yolo County; Woodland,95776,CA,Sacramento--Roseville--Arden-Arcade,Yolo County,Woodland
1167,98410,zip,95746; CA; Sacramento--Roseville--Arden-Arcade; Placer County; Granite Bay,95746,CA,Sacramento--Roseville--Arden-Arcade,Placer County,Granite Bay
1168,98408,zip,95742; CA; Sacramento--Roseville--Arden-Arcade; Sacramento County; Rancho Cordova,95742,CA,Sacramento--Roseville--Arden-Arcade,Sacramento County,Rancho Cordova
1169,98406,zip,95736; CA; Sacramento--Roseville--Arden-Arcade; Placer County; Colfax,95736,CA,Sacramento--Roseville--Arden-Arcade,Placer County,Colfax
1170,98405,zip,95735; CA; Sacramento--Roseville--Arden-Arcade; El Dorado County; Twin Bridges,95735,CA,Sacramento--Roseville--Arden-Arcade,El Dorado County,Twin Bridges
1171,98404,zip,95728; CA; Sacramento--Roseville--Arden-Arcade; Placer County; Soda Springs,95728,CA,Sacramento--Roseville--Arden-Arcade,Placer County,Soda Springs
1172,98403,zip,95726; CA; Sacramento--Roseville--Arden-Arcade; El Dorado County; Pollock Pines,95726,CA,Sacramento--Roseville--Arden-Arcade,El Dorado County,Pollock Pines
1173,98402,zip,95724; CA; Sacramento--Roseville--Arden-Arcade; Placer County; Soda Springs,95724,CA,Sacramento--Roseville--Arden-Arcade,Placer County,Soda Springs
1174,98401,zip,95722; CA; Sacramento--Roseville--Arden-Arcade; Placer County; Meadow Vista,95722,CA,Sacramento--Roseville--Arden-Arcade,Placer County,Meadow Vista
1175,98400,zip,95721; CA; Sacramento--Roseville--Arden-Arcade; El Dorado County; Twin Bridges,95721,CA,Sacramento--Roseville--Arden-Arcade,El Dorado County,Twin Bridges
1178,98399,zip,95720; CA; Sacramento--Roseville--Arden-Arcade; El Dorado County; Kyburz,95720,CA,Sacramento--Roseville--Arden-Arcade,El Dorado County,Kyburz
1179,98398,zip,95717; CA; Sacramento--Roseville--Arden-Arcade; Placer County; Gold Run,95717,CA,Sacramento--Roseville--Arden-Arcade,Placer County,Gold Run
1180,98397,zip,95715; CA; Sacramento--Roseville--Arden-Arcade; Placer County; Soda Springs,95715,CA,Sacramento--Roseville--Arden-Arcade,Placer County,Soda Springs
1181,98396,zip,95714; CA; Sacramento--Roseville--Arden-Arcade; Placer County; Dutch Flat,95714,CA,Sacramento--Roseville--Arden-Arcade,Placer County,Dutch Flat
1182,98395,zip,95713; CA; Sacramento--Roseville--Arden-Arcade; Placer County; Colfax,95713,CA,Sacramento--Roseville--Arden-Arcade,Placer County,Colfax
1183,98393,zip,95709; CA; Sacramento--Roseville--Arden-Arcade; El Dorado County; Camino,95709,CA,Sacramento--Roseville--Arden-Arcade,El Dorado County,Camino
1184,98392,zip,95703; CA; Sacramento--Roseville--Arden-Arcade; Placer County; Applegate,95703,CA,Sacramento--Roseville--Arden-Arcade,Placer County,Applegate
1185,98391,zip,95701; CA; Sacramento--Roseville--Arden-Arcade; Placer County; Alta,95701,CA,Sacramento--Roseville--Arden-Arcade,Placer County,Alta
1186,98390,zip,95699; CA; Amador County; Plymouth,95699,CA,Amador County,Plymouth,
1188,98389,zip,95698; CA; Sacramento--Roseville--Arden-Arcade; Yolo County; Woodland,95698,CA,Sacramento--Roseville--Arden-Arcade,Yolo County,Woodland
1189,98388,zip,95697; CA; Sacramento--Roseville--Arden-Arcade; Yolo County; Yolo,95697,CA,Sacramento--Roseville--Arden-Arcade,Yolo County,Yolo
1190,98386,zip,95695; CA; Sacramento--Roseville--Arden-Arcade; Yolo County; Woodland,95695,CA,Sacramento--Roseville--Arden-Arcade,Yolo County,Woodland
1191,98385,zip,95694; CA; Sacramento--Roseville--Arden-Arcade; Yolo County; Winters,95694,CA,Sacramento--Roseville--Arden-Arcade,Yolo County,Winters
1192,98384,zip,95693; CA; Sacramento--Roseville--Arden-Arcade; Sacramento County; Wilton,95693,CA,Sacramento--Roseville--Arden-Arcade,Sacramento County,Wilton
1193,98383,zip,95692; CA; Yuba City; Yuba County; Wheatland,95692,CA,Yuba City,Yuba County,Wheatland
1195,98381,zip,95690; CA; Sacramento--Roseville--Arden-Arcade; Sacramento County; Walnut Grove,95690,CA,Sacramento--Roseville--Arden-Arcade,Sacramento County,Walnut Grove
1196,98380,zip,95689; CA; Amador County; Volcano,95689,CA,Amador County,Volcano,
1198,98379,zip,95688; CA; Vallejo-Fairfield; Solano County; Vacaville,95688,CA,Vallejo-Fairfield,Solano County,Vacaville
1199,98378,zip,95687; CA; Vallejo-Fairfield; Solano County; Vacaville,95687,CA,Vallejo-Fairfield,Solano County,Vacaville
1200,98377,zip,95686; CA; Stockton-Lodi; San Joaquin County; Thornton,95686,CA,Stockton-Lodi,San Joaquin County,Thornton
1201,98376,zip,95685; CA; Amador County; Sutter Creek,95685,CA,Amador County,Sutter Creek,
1202,98375,zip,95684; CA; Sacramento--Roseville--Arden-Arcade; El Dorado County; Somerset,95684,CA,Sacramento--Roseville--Arden-Arcade,El Dorado County,Somerset
1203,98374,zip,95683; CA; Sacramento--Roseville--Arden-Arcade; Sacramento County; Sloughhouse,95683,CA,Sacramento--Roseville--Arden-Arcade,Sacramento County,Sloughhouse
1204,98373,zip,95682; CA; Sacramento--Roseville--Arden-Arcade; El Dorado County; Shingle Springs,95682,CA,Sacramento--Roseville--Arden-Arcade,El Dorado County,Shingle Springs
1205,98372,zip,95681; CA; Sacramento--Roseville--Arden-Arcade; Placer County; Sheridan,95681,CA,Sacramento--Roseville--Arden-Arcade,Placer County,Sheridan
1206,98371,zip,95680; CA; Sacramento--Roseville--Arden-Arcade; Sacramento County; Walnut Grove,95680,CA,Sacramento--Roseville--Arden-Arcade,Sacramento County,Walnut Grove
1207,98370,zip,95679; CA; Sacramento--Roseville--Arden-Arcade; Yolo County; Brooks,95679,CA,Sacramento--Roseville--Arden-Arcade,Yolo County,Brooks
1211,98367,zip,95676; CA; Yuba City; Sutter County; Robbins,95676,CA,Yuba City,Sutter County,Robbins
1212,98366,zip,95675; CA; Amador County; River Pines,95675,CA,Amador County,River Pines,
1213,98365,zip,95674; CA; Yuba City; Sutter County; Rio Oso,95674,CA,Yuba City,Sutter County,Rio Oso
1214,98364,zip,95673; CA; Sacramento--Roseville--Arden-Arcade; Sacramento County; Rio Linda,95673,CA,Sacramento--Roseville--Arden-Arcade,Sacramento County,Rio Linda
1215,98363,zip,95672; CA; Sacramento--Roseville--Arden-Arcade; El Dorado County; Rescue,95672,CA,Sacramento--Roseville--Arden-Arcade,El Dorado County,Rescue
1217,98360,zip,95669; CA; Amador County; Plymouth,95669,CA,Amador County,Plymouth,
1219,98359,zip,95668; CA; Yuba City; Sutter County; Pleasant Grove,95668,CA,Yuba City,Sutter County,Pleasant Grove
1220,98358,zip,95667; CA; Sacramento--Roseville--Arden-Arcade; El Dorado County; Placerville,95667,CA,Sacramento--Roseville--Arden-Arcade,El Dorado County,Placerville
1221,98357,zip,95666; CA; Amador County; Pioneer,95666,CA,Amador County,Pioneer,
1222,98356,zip,95665; CA; Amador County; Pine Grove,95665,CA,Amador County,Pine Grove,
1223,98355,zip,95664; CA; Sacramento--Roseville--Arden-Arcade; El Dorado County; Pilot Hill,95664,CA,Sacramento--Roseville--Arden-Arcade,El Dorado County,Pilot Hill
1224,98354,zip,95663; CA; Sacramento--Roseville--Arden-Arcade; Placer County; Penryn,95663,CA,Sacramento--Roseville--Arden-Arcade,Placer County,Penryn
1228,98350,zip,95659; CA; Yuba City; Sutter County; Nicolaus,95659,CA,Yuba City,Sutter County,Nicolaus
1230,98349,zip,95658; CA; Sacramento--Roseville--Arden-Arcade; Placer County; Newcastle,95658,CA,Sacramento--Roseville--Arden-Arcade,Placer County,Newcastle
1231,98348,zip,95656; CA; Amador County; Plymouth,95656,CA,Amador County,Plymouth,
1232,98347,zip,95655; CA; Sacramento--Roseville--Arden-Arcade; Sacramento County; Mather,95655,CA,Sacramento--Roseville--Arden-Arcade,Sacramento County,Mather
1233,98345,zip,95653; CA; Sacramento--Roseville--Arden-Arcade; Yolo County; Esparto,95653,CA,Sacramento--Roseville--Arden-Arcade,Yolo County,Esparto
1234,98343,zip,95651; CA; Sacramento--Roseville--Arden-Arcade; El Dorado County; Lotus,95651,CA,Sacramento--Roseville--Arden-Arcade,El Dorado County,Lotus
1235,98342,zip,95650; CA; Sacramento--Roseville--Arden-Arcade; Placer County; Loomis,95650,CA,Sacramento--Roseville--Arden-Arcade,Placer County,Loomis
1236,98341,zip,95648; CA; Sacramento--Roseville--Arden-Arcade; Placer County; Lincoln,95648,CA,Sacramento--Roseville--Arden-Arcade,Placer County,Lincoln
1237,98340,zip,95646; CA; Alpine County; Kirkwood,95646,CA,Alpine County,Kirkwood,
1238,98339,zip,95645; CA; Sacramento--Roseville--Arden-Arcade; Yolo County; Woodland,95645,CA,Sacramento--Roseville--Arden-Arcade,Yolo County,Woodland
1239,98337,zip,95642; CA; Amador County; Jackson,95642,CA,Amador County,Jackson,
1240,98336,zip,95641; CA; Sacramento--Roseville--Arden-Arcade; Sacramento County; Isleton,95641,CA,Sacramento--Roseville--Arden-Arcade,Sacramento County,Isleton
1241,98335,zip,95640; CA; Amador County; Ione,95640,CA,Amador County,Ione,
1242,98334,zip,95639; CA; Sacramento--Roseville--Arden-Arcade; Yolo County; Clarksburg,95639,CA,Sacramento--Roseville--Arden-Arcade,Yolo County,Clarksburg
1243,98333,zip,95638; CA; Sacramento--Roseville--Arden-Arcade; Sacramento County; Herald,95638,CA,Sacramento--Roseville--Arden-Arcade,Sacramento County,Herald
1244,98332,zip,95637; CA; Sacramento--Roseville--Arden-Arcade; Yolo County; Guinda,95637,CA,Sacramento--Roseville--Arden-Arcade,Yolo County,Guinda
1245,98331,zip,95636; CA; Sacramento--Roseville--Arden-Arcade; El Dorado County; Somerset,95636,CA,Sacramento--Roseville--Arden-Arcade,El Dorado County,Somerset
1246,98330,zip,95635; CA; Sacramento--Roseville--Arden-Arcade; El Dorado County; Greenwood,95635,CA,Sacramento--Roseville--Arden-Arcade,El Dorado County,Greenwood
1247,98329,zip,95634; CA; Sacramento--Roseville--Arden-Arcade; El Dorado County; Georgetown,95634,CA,Sacramento--Roseville--Arden-Arcade,El Dorado County,Georgetown
1248,98328,zip,95633; CA; Sacramento--Roseville--Arden-Arcade; El Dorado County; Garden Valley,95633,CA,Sacramento--Roseville--Arden-Arcade,El Dorado County,Garden Valley
1249,98327,zip,95632; CA; Sacramento--Roseville--Arden-Arcade; Sacramento County; Galt,95632,CA,Sacramento--Roseville--Arden-Arcade,Sacramento County,Galt
1250,98326,zip,95631; CA; Sacramento--Roseville--Arden-Arcade; Placer County; Foresthill,95631,CA,Sacramento--Roseville--Arden-Arcade,Placer County,Foresthill
1252,98324,zip,95629; CA; Amador County; Volcano,95629,CA,Amador County,Volcano,
1254,98322,zip,95627; CA; Sacramento--Roseville--Arden-Arcade; Yolo County; Esparto,95627,CA,Sacramento--Roseville--Arden-Arcade,Yolo County,Esparto
1255,98321,zip,95626; CA; Sacramento--Roseville--Arden-Arcade; Sacramento County; Elverta,95626,CA,Sacramento--Roseville--Arden-Arcade,Sacramento County,Elverta
1256,98320,zip,95625; CA; Vallejo-Fairfield; Solano County; Vacaville,95625,CA,Vallejo-Fairfield,Solano County,Vacaville
1258,98318,zip,95623; CA; Sacramento--Roseville--Arden-Arcade; El Dorado County; El Dorado,95623,CA,Sacramento--Roseville--Arden-Arcade,El Dorado County,El Dorado
1260,98316,zip,95620; CA; Vallejo-Fairfield; Solano County; Dixon,95620,CA,Vallejo-Fairfield,Solano County,Dixon
1261,98315,zip,95619; CA; Sacramento--Roseville--Arden-Arcade; El Dorado County; Diamond Springs,95619,CA,Sacramento--Roseville--Arden-Arcade,El Dorado County,Diamond Springs
1262,98314,zip,95618; CA; Sacramento--Roseville--Arden-Arcade; Yolo County; Davis,95618,CA,Sacramento--Roseville--Arden-Arcade,Yolo County,Davis
1263,98312,zip,95616; CA; Sacramento--Roseville--Arden-Arcade; Yolo County; Davis,95616,CA,Sacramento--Roseville--Arden-Arcade,Yolo County,Davis
1264,98311,zip,95615; CA; Sacramento--Roseville--Arden-Arcade; Sacramento County; Courtland,95615,CA,Sacramento--Roseville--Arden-Arcade,Sacramento County,Courtland
1265,98310,zip,95614; CA; Sacramento--Roseville--Arden-Arcade; El Dorado County; Cool,95614,CA,Sacramento--Roseville--Arden-Arcade,El Dorado County,Cool
1267,98309,zip,95613; CA; Sacramento--Roseville--Arden-Arcade; El Dorado County; Garden Valley,95613,CA,Sacramento--Roseville--Arden-Arcade,El Dorado County,Garden Valley
1268,98308,zip,95612; CA; Sacramento--Roseville--Arden-Arcade; Yolo County; Clarksburg,95612,CA,Sacramento--Roseville--Arden-Arcade,Yolo County,Clarksburg
1271,98303,zip,95607; CA; Sacramento--Roseville--Arden-Arcade; Yolo County; Capay,95607,CA,Sacramento--Roseville--Arden-Arcade,Yolo County,Capay
1272,98302,zip,95606; CA; Sacramento--Roseville--Arden-Arcade; Yolo County; Brooks,95606,CA,Sacramento--Roseville--Arden-Arcade,Yolo County,Brooks
1275,98299,zip,95603; CA; Sacramento--Roseville--Arden-Arcade; Placer County; Auburn,95603,CA,Sacramento--Roseville--Arden-Arcade,Placer County,Auburn
1276,98298,zip,95602; CA; Sacramento--Roseville--Arden-Arcade; Placer County; Auburn,95602,CA,Sacramento--Roseville--Arden-Arcade,Placer County,Auburn
1277,98297,zip,95601; CA; Amador County; Amador City,95601,CA,Amador County,Amador City,
1278,98296,zip,95595; CA; Trinity County; Zenia,95595,CA,Trinity County,Zenia,
1279,98295,zip,95589; CA; Eureka-Arcata-Fortuna; Humboldt County; Whitethorn,95589,CA,Eureka-Arcata-Fortuna,Humboldt County,Whitethorn
1280,98293,zip,95585; CA; Ukiah; Mendocino County; Leggett,95585,CA,Ukiah,Mendocino County,Leggett
1281,98292,zip,95573; CA; Eureka-Arcata-Fortuna; Humboldt County; Willow Creek,95573,CA,Eureka-Arcata-Fortuna,Humboldt County,Willow Creek
1282,98291,zip,95571; CA; Eureka-Arcata-Fortuna; Humboldt County; Myers Flat,95571,CA,Eureka-Arcata-Fortuna,Humboldt County,Myers Flat
1283,98290,zip,95570; CA; Eureka-Arcata-Fortuna; Humboldt County; Trinidad,95570,CA,Eureka-Arcata-Fortuna,Humboldt County,Trinidad
1285,98289,zip,95569; CA; Eureka-Arcata-Fortuna; Humboldt County; Redcrest,95569,CA,Eureka-Arcata-Fortuna,Humboldt County,Redcrest
1286,98288,zip,95568; CA; Siskiyou County; Somes Bar,95568,CA,Siskiyou County,Somes Bar,
1287,98287,zip,95567; CA; Crescent City; Del Norte County; Smith River,95567,CA,Crescent City,Del Norte County,Smith River
1288,98286,zip,95565; CA; Eureka-Arcata-Fortuna; Humboldt County; Scotia,95565,CA,Eureka-Arcata-Fortuna,Humboldt County,Scotia
1289,98285,zip,95564; CA; Eureka-Arcata-Fortuna; Humboldt County; Samoa,95564,CA,Eureka-Arcata-Fortuna,Humboldt County,Samoa
1290,98284,zip,95563; CA; Trinity County; Salyer,95563,CA,Trinity County,Salyer,
1291,98283,zip,95562; CA; Eureka-Arcata-Fortuna; Humboldt County; Rio Dell,95562,CA,Eureka-Arcata-Fortuna,Humboldt County,Rio Dell
1292,98282,zip,95560; CA; Eureka-Arcata-Fortuna; Humboldt County; Redway,95560,CA,Eureka-Arcata-Fortuna,Humboldt County,Redway
1293,98281,zip,95559; CA; Eureka-Arcata-Fortuna; Humboldt County; Myers Flat,95559,CA,Eureka-Arcata-Fortuna,Humboldt County,Myers Flat
1294,98280,zip,95558; CA; Eureka-Arcata-Fortuna; Humboldt County; Ferndale,95558,CA,Eureka-Arcata-Fortuna,Humboldt County,Ferndale
1295,98279,zip,95556; CA; Eureka-Arcata-Fortuna; Humboldt County; Orleans,95556,CA,Eureka-Arcata-Fortuna,Humboldt County,Orleans
1296,98278,zip,95555; CA; Eureka-Arcata-Fortuna; Humboldt County; Orick,95555,CA,Eureka-Arcata-Fortuna,Humboldt County,Orick
1297,98277,zip,95554; CA; Eureka-Arcata-Fortuna; Humboldt County; Myers Flat,95554,CA,Eureka-Arcata-Fortuna,Humboldt County,Myers Flat
1298,98276,zip,95553; CA; Eureka-Arcata-Fortuna; Humboldt County; Myers Flat,95553,CA,Eureka-Arcata-Fortuna,Humboldt County,Myers Flat
1299,98275,zip,95552; CA; Trinity County; Mad River,95552,CA,Trinity County,Mad River,
1300,98274,zip,95551; CA; Eureka-Arcata-Fortuna; Humboldt County; Loleta,95551,CA,Eureka-Arcata-Fortuna,Humboldt County,Loleta
1301,98273,zip,95550; CA; Eureka-Arcata-Fortuna; Humboldt County; Korbel,95550,CA,Eureka-Arcata-Fortuna,Humboldt County,Korbel
1302,98272,zip,95549; CA; Eureka-Arcata-Fortuna; Humboldt County; Kneeland,95549,CA,Eureka-Arcata-Fortuna,Humboldt County,Kneeland
1303,98271,zip,95548; CA; Crescent City; Del Norte County; Klamath,95548,CA,Crescent City,Del Norte County,Klamath
1304,98270,zip,95547; CA; Eureka-Arcata-Fortuna; Humboldt County; Hydesville,95547,CA,Eureka-Arcata-Fortuna,Humboldt County,Hydesville
1306,98268,zip,95545; CA; Eureka-Arcata-Fortuna; Humboldt County; Garberville,95545,CA,Eureka-Arcata-Fortuna,Humboldt County,Garberville
1307,98267,zip,95543; CA; Crescent City; Del Norte County; Gasquet,95543,CA,Crescent City,Del Norte County,Gasquet
1308,98266,zip,95542; CA; Eureka-Arcata-Fortuna; Humboldt County; Garberville,95542,CA,Eureka-Arcata-Fortuna,Humboldt County,Garberville
1309,98265,zip,95540; CA; Eureka-Arcata-Fortuna; Humboldt County; Fortuna,95540,CA,Eureka-Arcata-Fortuna,Humboldt County,Fortuna
1310,98263,zip,95537; CA; Eureka-Arcata-Fortuna; Humboldt County; Fields Landing,95537,CA,Eureka-Arcata-Fortuna,Humboldt County,Fields Landing
1311,98262,zip,95536; CA; Eureka-Arcata-Fortuna; Humboldt County; Ferndale,95536,CA,Eureka-Arcata-Fortuna,Humboldt County,Ferndale
1313,98259,zip,95531; CA; Crescent City; Del Norte County,95531,CA,Crescent City,Del Norte County,
1314,98258,zip,95528; CA; Eureka-Arcata-Fortuna; Humboldt County; Carlotta,95528,CA,Eureka-Arcata-Fortuna,Humboldt County,Carlotta
1315,98257,zip,95527; CA; Trinity County; Burnt Ranch,95527,CA,Trinity County,Burnt Ranch,
1316,98256,zip,95526; CA; Eureka-Arcata-Fortuna; Humboldt County; Bridgeville,95526,CA,Eureka-Arcata-Fortuna,Humboldt County,Bridgeville
1317,98255,zip,95525; CA; Eureka-Arcata-Fortuna; Humboldt County; Blue Lake,95525,CA,Eureka-Arcata-Fortuna,Humboldt County,Blue Lake
1318,98254,zip,95524; CA; Eureka-Arcata-Fortuna; Humboldt County; Bayside,95524,CA,Eureka-Arcata-Fortuna,Humboldt County,Bayside
1319,98253,zip,95521; CA; Eureka-Arcata-Fortuna; Humboldt County; Arcata,95521,CA,Eureka-Arcata-Fortuna,Humboldt County,Arcata
1320,98252,zip,95519; CA; Eureka-Arcata-Fortuna; Humboldt County; McKinleyville,95519,CA,Eureka-Arcata-Fortuna,Humboldt County,McKinleyville
1321,98250,zip,95514; CA; Eureka-Arcata-Fortuna; Humboldt County; Blocksburg,95514,CA,Eureka-Arcata-Fortuna,Humboldt County,Blocksburg
1322,98249,zip,95511; CA; Eureka-Arcata-Fortuna; Humboldt County; Alderpoint,95511,CA,Eureka-Arcata-Fortuna,Humboldt County,Alderpoint
1323,98248,zip,95503; CA; Eureka-Arcata-Fortuna; Humboldt County; Eureka,95503,CA,Eureka-Arcata-Fortuna,Humboldt County,Eureka
1324,98246,zip,95501; CA; Eureka-Arcata-Fortuna; Humboldt County; Eureka,95501,CA,Eureka-Arcata-Fortuna,Humboldt County,Eureka
1325,98245,zip,95497; CA; Santa Rosa; Sonoma County; The Sea Ranch,95497,CA,Santa Rosa,Sonoma County,The Sea Ranch
1326,98244,zip,95494; CA; Ukiah; Mendocino County; Yorkville,95494,CA,Ukiah,Mendocino County,Yorkville
1327,98243,zip,95493; CA; Clearlake; Lake County; Upper Lake,95493,CA,Clearlake,Lake County,Upper Lake
1328,98242,zip,95492; CA; Santa Rosa; Sonoma County; Windsor,95492,CA,Santa Rosa,Sonoma County,Windsor
1329,98241,zip,95490; CA; Ukiah; Mendocino County; Willits,95490,CA,Ukiah,Mendocino County,Willits
1330,98240,zip,95488; CA; Ukiah; Mendocino County; Westport,95488,CA,Ukiah,Mendocino County,Westport
1332,98237,zip,95485; CA; Clearlake; Lake County; Upper Lake,95485,CA,Clearlake,Lake County,Upper Lake
1333,98236,zip,95482; CA; Ukiah; Mendocino County,95482,CA,Ukiah,Mendocino County,
1334,98235,zip,95481; CA; Ukiah; Mendocino County,95481,CA,Ukiah,Mendocino County,
1335,98233,zip,95476; CA; Santa Rosa; Sonoma County; Sonoma,95476,CA,Santa Rosa,Sonoma County,Sonoma
1336,98231,zip,95472; CA; Santa Rosa; Sonoma County; Sebastopol,95472,CA,Santa Rosa,Sonoma County,Sebastopol
1337,98230,zip,95471; CA; Santa Rosa; Sonoma County; Guerneville,95471,CA,Santa Rosa,Sonoma County,Guerneville
1338,98229,zip,95470; CA; Ukiah; Mendocino County; Redwood Valley,95470,CA,Ukiah,Mendocino County,Redwood Valley
1339,98228,zip,95469; CA; Ukiah; Mendocino County; Potter Valley,95469,CA,Ukiah,Mendocino County,Potter Valley
1340,98227,zip,95468; CA; Ukiah; Mendocino County; Point Arena,95468,CA,Ukiah,Mendocino County,Point Arena
1341,98226,zip,95467; CA; Clearlake; Lake County; Hidden Valley Lake,95467,CA,Clearlake,Lake County,Hidden Valley Lake
1342,98225,zip,95466; CA; Ukiah; Mendocino County; Philo,95466,CA,Ukiah,Mendocino County,Philo
1343,98224,zip,95465; CA; Santa Rosa; Sonoma County; Occidental,95465,CA,Santa Rosa,Sonoma County,Occidental
1344,98223,zip,95464; CA; Clearlake; Lake County; Nice,95464,CA,Clearlake,Lake County,Nice
1345,98222,zip,95463; CA; Ukiah; Mendocino County; Philo,95463,CA,Ukiah,Mendocino County,Philo
1346,98221,zip,95462; CA; Santa Rosa; Sonoma County; Monte Rio,95462,CA,Santa Rosa,Sonoma County,Monte Rio
1347,98220,zip,95461; CA; Clearlake; Lake County; Middletown,95461,CA,Clearlake,Lake County,Middletown
1348,98219,zip,95460; CA; Ukiah; Mendocino County; Mendocino,95460,CA,Ukiah,Mendocino County,Mendocino
1349,98218,zip,95459; CA; Ukiah; Mendocino County; Manchester,95459,CA,Ukiah,Mendocino County,Manchester
1350,98217,zip,95458; CA; Clearlake; Lake County; Lucerne,95458,CA,Clearlake,Lake County,Lucerne
1351,98216,zip,95457; CA; Clearlake; Lake County; Lower Lake,95457,CA,Clearlake,Lake County,Lower Lake
1352,98215,zip,95456; CA; Ukiah; Mendocino County; Mendocino,95456,CA,Ukiah,Mendocino County,Mendocino
1353,98214,zip,95454; CA; Ukiah; Mendocino County; Laytonville,95454,CA,Ukiah,Mendocino County,Laytonville
1354,98213,zip,95453; CA; Clearlake; Lake County; Lakeport,95453,CA,Clearlake,Lake County,Lakeport
1355,98212,zip,95452; CA; Santa Rosa; Sonoma County; Kenwood,95452,CA,Santa Rosa,Sonoma County,Kenwood
1356,98211,zip,95451; CA; Clearlake; Lake County; Kelseyville,95451,CA,Clearlake,Lake County,Kelseyville
1357,98210,zip,95450; CA; Santa Rosa; Sonoma County; Jenner,95450,CA,Santa Rosa,Sonoma County,Jenner
1359,98209,zip,95449; CA; Ukiah; Mendocino County; Hopland,95449,CA,Ukiah,Mendocino County,Hopland
1360,98208,zip,95448; CA; Santa Rosa; Sonoma County; Healdsburg,95448,CA,Santa Rosa,Sonoma County,Healdsburg
1361,98207,zip,95446; CA; Santa Rosa; Sonoma County; Guerneville,95446,CA,Santa Rosa,Sonoma County,Guerneville
1362,98206,zip,95445; CA; Ukiah; Mendocino County; Gualala,95445,CA,Ukiah,Mendocino County,Gualala
1363,98205,zip,95444; CA; Santa Rosa; Sonoma County; Graton,95444,CA,Santa Rosa,Sonoma County,Graton
1364,98204,zip,95443; CA; Clearlake; Lake County; Lucerne,95443,CA,Clearlake,Lake County,Lucerne
1365,98203,zip,95442; CA; Santa Rosa; Sonoma County; Glen Ellen,95442,CA,Santa Rosa,Sonoma County,Glen Ellen
1366,98202,zip,95441; CA; Santa Rosa; Sonoma County; Geyserville,95441,CA,Santa Rosa,Sonoma County,Geyserville
1367,98201,zip,95439; CA; Santa Rosa; Sonoma County; Fulton,95439,CA,Santa Rosa,Sonoma County,Fulton
1368,98200,zip,95437; CA; Ukiah; Mendocino County; Fort Bragg,95437,CA,Ukiah,Mendocino County,Fort Bragg
1370,98199,zip,95436; CA; Santa Rosa; Sonoma County; Forestville,95436,CA,Santa Rosa,Sonoma County,Forestville
1371,98198,zip,95435; CA; Clearlake; Lake County; Lakeport,95435,CA,Clearlake,Lake County,Lakeport
1372,98197,zip,95433; CA; Santa Rosa; Sonoma County; Sonoma,95433,CA,Santa Rosa,Sonoma County,Sonoma
1373,98196,zip,95432; CA; Ukiah; Mendocino County; Elk,95432,CA,Ukiah,Mendocino County,Elk
1374,98194,zip,95430; CA; Santa Rosa; Sonoma County; Duncans Mills,95430,CA,Santa Rosa,Sonoma County,Duncans Mills
1375,98192,zip,95428; CA; Ukiah; Mendocino County; Covelo,95428,CA,Ukiah,Mendocino County,Covelo
1376,98191,zip,95427; CA; Ukiah; Mendocino County; Comptche,95427,CA,Ukiah,Mendocino County,Comptche
1377,98190,zip,95426; CA; Clearlake; Lake County; Middletown,95426,CA,Clearlake,Lake County,Middletown
1378,98189,zip,95425; CA; Santa Rosa; Sonoma County; Cloverdale,95425,CA,Santa Rosa,Sonoma County,Cloverdale
1379,98188,zip,95424; CA; Clearlake; Lake County,95424,CA,Clearlake,Lake County,
1380,98187,zip,95423; CA; Clearlake; Lake County; Clearlake Oaks,95423,CA,Clearlake,Lake County,Clearlake Oaks
1381,98186,zip,95422; CA; Clearlake; Lake County,95422,CA,Clearlake,Lake County,
1382,98185,zip,95421; CA; Santa Rosa; Sonoma County; Cazadero,95421,CA,Santa Rosa,Sonoma County,Cazadero
1383,98184,zip,95420; CA; Ukiah; Mendocino County; Caspar,95420,CA,Ukiah,Mendocino County,Caspar
1384,98183,zip,95419; CA; Santa Rosa; Sonoma County; Occidental,95419,CA,Santa Rosa,Sonoma County,Occidental
1385,98181,zip,95417; CA; Ukiah; Mendocino County; Branscomb,95417,CA,Ukiah,Mendocino County,Branscomb
1386,98180,zip,95416; CA; Santa Rosa; Sonoma County; Sonoma,95416,CA,Santa Rosa,Sonoma County,Sonoma
1388,98179,zip,95415; CA; Ukiah; Mendocino County; Boonville,95415,CA,Ukiah,Mendocino County,Boonville
1389,98178,zip,95412; CA; Santa Rosa; Sonoma County; Annapolis,95412,CA,Santa Rosa,Sonoma County,Annapolis
1390,98177,zip,95410; CA; Ukiah; Mendocino County; Albion,95410,CA,Ukiah,Mendocino County,Albion
1391,98176,zip,95409; CA; Santa Rosa; Sonoma County,95409,CA,Santa Rosa,Sonoma County,
1392,98174,zip,95407; CA; Santa Rosa; Sonoma County,95407,CA,Santa Rosa,Sonoma County,
1393,98172,zip,95405; CA; Santa Rosa; Sonoma County,95405,CA,Santa Rosa,Sonoma County,
1394,98171,zip,95404; CA; Santa Rosa; Sonoma County,95404,CA,Santa Rosa,Sonoma County,
1395,98170,zip,95403; CA; Santa Rosa; Sonoma County,95403,CA,Santa Rosa,Sonoma County,
1397,98168,zip,95401; CA; Santa Rosa; Sonoma County,95401,CA,Santa Rosa,Sonoma County,
1399,98165,zip,95389; CA; Mariposa County; El Portal,95389,CA,Mariposa County,El Portal,
1400,98164,zip,95388; CA; Merced; Merced County; Winton,95388,CA,Merced,Merced County,Winton
1401,98163,zip,95387; CA; Modesto; Stanislaus County; Patterson,95387,CA,Modesto,Stanislaus County,Patterson
1402,98162,zip,95386; CA; Modesto; Stanislaus County; Waterford,95386,CA,Modesto,Stanislaus County,Waterford
1403,98161,zip,95385; CA; Modesto; Stanislaus County; Vernalis,95385,CA,Modesto,Stanislaus County,Vernalis
1404,98160,zip,95383; CA; Sonora; Tuolumne County; Twain Harte,95383,CA,Sonora,Tuolumne County,Twain Harte
1406,98159,zip,95382; CA; Modesto; Stanislaus County; Turlock,95382,CA,Modesto,Stanislaus County,Turlock
1407,98157,zip,95380; CA; Modesto; Stanislaus County; Turlock,95380,CA,Modesto,Stanislaus County,Turlock
1408,98156,zip,95379; CA; Sonora; Tuolumne County; Tuolumne,95379,CA,Sonora,Tuolumne County,Tuolumne
1411,98152,zip,95375; CA; Sonora; Tuolumne County; Strawberry,95375,CA,Sonora,Tuolumne County,Strawberry
1412,98151,zip,95374; CA; Merced; Merced County; Stevinson,95374,CA,Merced,Merced County,Stevinson
1413,98149,zip,95372; CA; Sonora; Tuolumne County; Soulsbyville,95372,CA,Sonora,Tuolumne County,Soulsbyville
1414,98148,zip,95370; CA; Sonora; Tuolumne County,95370,CA,Sonora,Tuolumne County,
1415,98147,zip,95369; CA; Merced; Merced County; Snelling,95369,CA,Merced,Merced County,Snelling
1416,98146,zip,95368; CA; Modesto; Stanislaus County; Salida,95368,CA,Modesto,Stanislaus County,Salida
1417,98145,zip,95367; CA; Modesto; Stanislaus County; Riverbank,95367,CA,Modesto,Stanislaus County,Riverbank
1418,98144,zip,95366; CA; Stockton-Lodi; San Joaquin County; Ripon,95366,CA,Stockton-Lodi,San Joaquin County,Ripon
1419,98143,zip,95365; CA; Merced; Merced County; Planada,95365,CA,Merced,Merced County,Planada
1420,98142,zip,95364; CA; Sonora; Tuolumne County; Pinecrest,95364,CA,Sonora,Tuolumne County,Pinecrest
1421,98141,zip,95363; CA; Modesto; Stanislaus County; Patterson,95363,CA,Modesto,Stanislaus County,Patterson
1422,98140,zip,95361; CA; Modesto; Stanislaus County; Oakdale,95361,CA,Modesto,Stanislaus County,Oakdale
1424,98139,zip,95360; CA; Modesto; Stanislaus County; Newman,95360,CA,Modesto,Stanislaus County,Newman
1425,98138,zip,95358; CA; Modesto; Stanislaus County,95358,CA,Modesto,Stanislaus County,
1426,98137,zip,95357; CA; Modesto; Stanislaus County,95357,CA,Modesto,Stanislaus County,
1427,98136,zip,95356; CA; Modesto; Stanislaus County,95356,CA,Modesto,Stanislaus County,
1428,98135,zip,95355; CA; Modesto; Stanislaus County,95355,CA,Modesto,Stanislaus County,
1429,98134,zip,95354; CA; Modesto; Stanislaus County,95354,CA,Modesto,Stanislaus County,
1430,98131,zip,95351; CA; Modesto; Stanislaus County,95351,CA,Modesto,Stanislaus County,
1431,98130,zip,95350; CA; Modesto; Stanislaus County,95350,CA,Modesto,Stanislaus County,
1433,98129,zip,95348; CA; Merced; Merced County,95348,CA,Merced,Merced County,
1434,98128,zip,95347; CA; Mariposa County; Coulterville,95347,CA,Mariposa County,Coulterville,
1435,98127,zip,95346; CA; Sonora; Tuolumne County; Mi Wuk Village,95346,CA,Sonora,Tuolumne County,Mi Wuk Village
1436,98126,zip,95345; CA; Mariposa County; Midpines,95345,CA,Mariposa County,Midpines,
1437,98122,zip,95341; CA; Merced; Merced County,95341,CA,Merced,Merced County,
1438,98121,zip,95340; CA; Merced; Merced County,95340,CA,Merced,Merced County,
1439,98120,zip,95338; CA; Mariposa County; Mariposa,95338,CA,Mariposa County,Mariposa,
1443,98117,zip,95335; CA; Sonora; Tuolumne County; Long Barn,95335,CA,Sonora,Tuolumne County,Long Barn
1444,98116,zip,95334; CA; Merced; Merced County; Livingston,95334,CA,Merced,Merced County,Livingston
1445,98115,zip,95333; CA; Merced; Merced County; Le Grand,95333,CA,Merced,Merced County,Le Grand
1446,98114,zip,95330; CA; Stockton-Lodi; San Joaquin County; Lathrop,95330,CA,Stockton-Lodi,San Joaquin County,Lathrop
1447,98113,zip,95329; CA; Mariposa County; La Grange,95329,CA,Mariposa County,La Grange,
1448,98112,zip,95328; CA; Modesto; Stanislaus County; Keyes,95328,CA,Modesto,Stanislaus County,Keyes
1449,98111,zip,95327; CA; Sonora; Tuolumne County; Jamestown,95327,CA,Sonora,Tuolumne County,Jamestown
1450,98110,zip,95326; CA; Modesto; Stanislaus County; Hughson,95326,CA,Modesto,Stanislaus County,Hughson
1452,98109,zip,95325; CA; Mariposa County; Hornitos,95325,CA,Mariposa County,Hornitos,
1453,98108,zip,95324; CA; Merced; Merced County; Hilmar,95324,CA,Merced,Merced County,Hilmar
1454,98107,zip,95323; CA; Modesto; Stanislaus County; Hickman,95323,CA,Modesto,Stanislaus County,Hickman
1455,98106,zip,95322; CA; Merced; Merced County; Gustine,95322,CA,Merced,Merced County,Gustine
1456,98105,zip,95321; CA; Sonora; Tuolumne County; Groveland,95321,CA,Sonora,Tuolumne County,Groveland
1457,98104,zip,95320; CA; Stockton-Lodi; San Joaquin County; Escalon,95320,CA,Stockton-Lodi,San Joaquin County,Escalon
1458,98103,zip,95319; CA; Modesto; Stanislaus County,95319,CA,Modesto,Stanislaus County,
1459,98102,zip,95318; CA; Mariposa County; El Portal,95318,CA,Mariposa County,El Portal,
1460,98101,zip,95317; CA; Merced; Merced County; El Nido,95317,CA,Merced,Merced County,El Nido
1461,98100,zip,95316; CA; Modesto; Stanislaus County; Denair,95316,CA,Modesto,Stanislaus County,Denair
1464,98099,zip,95315; CA; Merced; Merced County; Delhi,95315,CA,Merced,Merced County,Delhi
1465,98097,zip,95313; CA; Modesto; Stanislaus County; Crows Landing,95313,CA,Modesto,Stanislaus County,Crows Landing
1466,98096,zip,95312; CA; Merced; Merced County; Winton,95312,CA,Merced,Merced County,Winton
1467,98095,zip,95311; CA; Mariposa County; Coulterville,95311,CA,Mariposa County,Coulterville,
1468,98094,zip,95310; CA; Sonora; Tuolumne County; Columbia,95310,CA,Sonora,Tuolumne County,Columbia
1469,98093,zip,95309; CA; Sonora; Tuolumne County; Jamestown,95309,CA,Sonora,Tuolumne County,Jamestown
1470,98092,zip,95307; CA; Modesto; Stanislaus County; Ceres,95307,CA,Modesto,Stanislaus County,Ceres
1471,98091,zip,95306; CA; Mariposa County; Catheys Valley,95306,CA,Mariposa County,Catheys Valley,
1472,98090,zip,95305; CA; Sonora; Tuolumne County; Big Oak Flat,95305,CA,Sonora,Tuolumne County,Big Oak Flat
1473,98089,zip,95304; CA; Stockton-Lodi; San Joaquin County; Tracy,95304,CA,Stockton-Lodi,San Joaquin County,Tracy
1474,98088,zip,95303; CA; Merced; Merced County; Ballico,95303,CA,Merced,Merced County,Ballico
1475,98087,zip,95301; CA; Merced; Merced County; Atwater,95301,CA,Merced,Merced County,Atwater
1476,98082,zip,95258; CA; Stockton-Lodi; San Joaquin County; Woodbridge,95258,CA,Stockton-Lodi,San Joaquin County,Woodbridge
1477,98081,zip,95257; CA; Calaveras County; Wilseyville,95257,CA,Calaveras County,Wilseyville,
1478,98080,zip,95255; CA; Calaveras County; West Point,95255,CA,Calaveras County,West Point,
1480,98079,zip,95254; CA; Calaveras County; Valley Springs,95254,CA,Calaveras County,Valley Springs,
1481,98078,zip,95253; CA; Stockton-Lodi; San Joaquin County; Lodi,95253,CA,Stockton-Lodi,San Joaquin County,Lodi
1482,98077,zip,95252; CA; Calaveras County; Valley Springs,95252,CA,Calaveras County,Valley Springs,
1483,98076,zip,95251; CA; Calaveras County; Vallecito,95251,CA,Calaveras County,Vallecito,
1484,98074,zip,95249; CA; Calaveras County; San Andreas,95249,CA,Calaveras County,San Andreas,
1485,98073,zip,95248; CA; Calaveras County; Mokelumne Hill,95248,CA,Calaveras County,Mokelumne Hill,
1486,98072,zip,95247; CA; Calaveras County; Murphys,95247,CA,Calaveras County,Murphys,
1487,98071,zip,95246; CA; Calaveras County; Mountain Ranch,95246,CA,Calaveras County,Mountain Ranch,
1488,98070,zip,95245; CA; Calaveras County; Mokelumne Hill,95245,CA,Calaveras County,Mokelumne Hill,
1489,98069,zip,95242; CA; Stockton-Lodi; San Joaquin County; Lodi,95242,CA,Stockton-Lodi,San Joaquin County,Lodi
1490,98067,zip,95240; CA; Stockton-Lodi; San Joaquin County; Lodi,95240,CA,Stockton-Lodi,San Joaquin County,Lodi
1491,98066,zip,95237; CA; Stockton-Lodi; San Joaquin County; Lockeford,95237,CA,Stockton-Lodi,San Joaquin County,Lockeford
1492,98065,zip,95236; CA; Stockton-Lodi; San Joaquin County; Linden,95236,CA,Stockton-Lodi,San Joaquin County,Linden
1493,98063,zip,95233; CA; Calaveras County; Murphys,95233,CA,Calaveras County,Murphys,
1494,98062,zip,95232; CA; Calaveras County; Glencoe,95232,CA,Calaveras County,Glencoe,
1495,98061,zip,95231; CA; Stockton-Lodi; San Joaquin County; French Camp,95231,CA,Stockton-Lodi,San Joaquin County,French Camp
1496,98060,zip,95230; CA; Stockton-Lodi; San Joaquin County; Farmington,95230,CA,Stockton-Lodi,San Joaquin County,Farmington
1497,98059,zip,95229; CA; Calaveras County; Vallecito,95229,CA,Calaveras County,Vallecito,
1498,98058,zip,95228; CA; Calaveras County; Copperopolis,95228,CA,Calaveras County,Copperopolis,
1499,98057,zip,95227; CA; Stockton-Lodi; San Joaquin County; Lockeford,95227,CA,Stockton-Lodi,San Joaquin County,Lockeford
1500,98056,zip,95226; CA; Calaveras County; Valley Springs,95226,CA,Calaveras County,Valley Springs,
1501,98055,zip,95225; CA; Calaveras County; Valley Springs,95225,CA,Calaveras County,Valley Springs,
1502,98054,zip,95224; CA; Calaveras County; Murphys,95224,CA,Calaveras County,Murphys,
1503,98053,zip,95223; CA; Calaveras County; Arnold,95223,CA,Calaveras County,Arnold,
1504,98052,zip,95222; CA; Calaveras County; Murphys,95222,CA,Calaveras County,Murphys,
1505,98050,zip,95220; CA; Stockton-Lodi; San Joaquin County; Acampo,95220,CA,Stockton-Lodi,San Joaquin County,Acampo
1508,98048,zip,95215; CA; Stockton-Lodi; San Joaquin County; Garden Acres,95215,CA,Stockton-Lodi,San Joaquin County,Garden Acres
1509,98046,zip,95212; CA; Stockton-Lodi; San Joaquin County; Stockton,95212,CA,Stockton-Lodi,San Joaquin County,Stockton
1510,98044,zip,95210; CA; Stockton-Lodi; San Joaquin County; Stockton,95210,CA,Stockton-Lodi,San Joaquin County,Stockton
1512,98041,zip,95207; CA; Stockton-Lodi; San Joaquin County; Stockton,95207,CA,Stockton-Lodi,San Joaquin County,Stockton
1513,98040,zip,95206; CA; Stockton-Lodi; San Joaquin County; Stockton,95206,CA,Stockton-Lodi,San Joaquin County,Stockton
1515,98039,zip,95205; CA; Stockton-Lodi; San Joaquin County; Stockton,95205,CA,Stockton-Lodi,San Joaquin County,Stockton
1516,98038,zip,95204; CA; Stockton-Lodi; San Joaquin County; Stockton,95204,CA,Stockton-Lodi,San Joaquin County,Stockton
1517,98037,zip,95203; CA; Stockton-Lodi; San Joaquin County; Stockton,95203,CA,Stockton-Lodi,San Joaquin County,Stockton
1518,98036,zip,95202; CA; Stockton-Lodi; San Joaquin County; Stockton,95202,CA,Stockton-Lodi,San Joaquin County,Stockton
1519,98011,zip,95148; CA; San Jose-Sunnyvale-Santa Clara; Santa Clara County; San Jose,95148,CA,San Jose-Sunnyvale-Santa Clara,Santa Clara County,San Jose
1521,98009,zip,95141; CA; San Jose-Sunnyvale-Santa Clara; Santa Clara County; San Jose,95141,CA,San Jose-Sunnyvale-Santa Clara,Santa Clara County,San Jose
1522,98008,zip,95140; CA; San Jose-Sunnyvale-Santa Clara; Santa Clara County; East Foothills,95140,CA,San Jose-Sunnyvale-Santa Clara,Santa Clara County,East Foothills
1523,98007,zip,95139; CA; San Jose-Sunnyvale-Santa Clara; Santa Clara County; San Jose,95139,CA,San Jose-Sunnyvale-Santa Clara,Santa Clara County,San Jose
1524,98006,zip,95138; CA; San Jose-Sunnyvale-Santa Clara; Santa Clara County; San Jose,95138,CA,San Jose-Sunnyvale-Santa Clara,Santa Clara County,San Jose
1525,98004,zip,95136; CA; San Jose-Sunnyvale-Santa Clara; Santa Clara County; San Jose,95136,CA,San Jose-Sunnyvale-Santa Clara,Santa Clara County,San Jose
1526,98003,zip,95135; CA; San Jose-Sunnyvale-Santa Clara; Santa Clara County; San Jose,95135,CA,San Jose-Sunnyvale-Santa Clara,Santa Clara County,San Jose
1528,98001,zip,95133; CA; San Jose-Sunnyvale-Santa Clara; Santa Clara County; San Jose,95133,CA,San Jose-Sunnyvale-Santa Clara,Santa Clara County,San Jose
1529,98000,zip,95132; CA; San Jose-Sunnyvale-Santa Clara; Santa Clara County; San Jose,95132,CA,San Jose-Sunnyvale-Santa Clara,Santa Clara County,San Jose
1532,97999,zip,95131; CA; San Jose-Sunnyvale-Santa Clara; Santa Clara County; San Jose,95131,CA,San Jose-Sunnyvale-Santa Clara,Santa Clara County,San Jose
1537,97994,zip,95126; CA; San Jose-Sunnyvale-Santa Clara; Santa Clara County; San Jose,95126,CA,San Jose-Sunnyvale-Santa Clara,Santa Clara County,San Jose
1541,97990,zip,95122; CA; San Jose-Sunnyvale-Santa Clara; Santa Clara County; San Jose,95122,CA,San Jose-Sunnyvale-Santa Clara,Santa Clara County,San Jose
1542,97989,zip,95121; CA; San Jose-Sunnyvale-Santa Clara; Santa Clara County; San Jose,95121,CA,San Jose-Sunnyvale-Santa Clara,Santa Clara County,San Jose
1544,97987,zip,95119; CA; San Jose-Sunnyvale-Santa Clara; Santa Clara County; San Jose,95119,CA,San Jose-Sunnyvale-Santa Clara,Santa Clara County,San Jose
1545,97986,zip,95118; CA; San Jose-Sunnyvale-Santa Clara; Santa Clara County; San Jose,95118,CA,San Jose-Sunnyvale-Santa Clara,Santa Clara County,San Jose
1546,97985,zip,95117; CA; San Jose-Sunnyvale-Santa Clara; Santa Clara County; San Jose,95117,CA,San Jose-Sunnyvale-Santa Clara,Santa Clara County,San Jose
1547,97984,zip,95116; CA; San Jose-Sunnyvale-Santa Clara; Santa Clara County; San Jose,95116,CA,San Jose-Sunnyvale-Santa Clara,Santa Clara County,San Jose
1548,97981,zip,95113; CA; San Jose-Sunnyvale-Santa Clara; Santa Clara County; San Jose,95113,CA,San Jose-Sunnyvale-Santa Clara,Santa Clara County,San Jose
1551,97978,zip,95110; CA; San Jose-Sunnyvale-Santa Clara; Santa Clara County; San Jose,95110,CA,San Jose-Sunnyvale-Santa Clara,Santa Clara County,San Jose
1552,97970,zip,95076; CA; Santa Cruz-Watsonville; Santa Cruz County; Watsonville,95076,CA,Santa Cruz-Watsonville,Santa Cruz County,Watsonville
1554,97969,zip,95075; CA; San Jose-Sunnyvale-Santa Clara; San Benito County; Hollister,95075,CA,San Jose-Sunnyvale-Santa Clara,San Benito County,Hollister
1555,97968,zip,95073; CA; Santa Cruz-Watsonville; Santa Cruz County; Soquel,95073,CA,Santa Cruz-Watsonville,Santa Cruz County,Soquel
1556,97966,zip,95070; CA; San Jose-Sunnyvale-Santa Clara; Santa Clara County; Saratoga,95070,CA,San Jose-Sunnyvale-Santa Clara,Santa Clara County,Saratoga
1557,97964,zip,95066; CA; Santa Cruz-Watsonville; Santa Cruz County; Scotts Valley,95066,CA,Santa Cruz-Watsonville,Santa Cruz County,Scotts Valley
1558,97963,zip,95065; CA; Santa Cruz-Watsonville; Santa Cruz County; Santa Cruz,95065,CA,Santa Cruz-Watsonville,Santa Cruz County,Santa Cruz
1559,97962,zip,95064; CA; Santa Cruz-Watsonville; Santa Cruz County; Santa Cruz,95064,CA,Santa Cruz-Watsonville,Santa Cruz County,Santa Cruz
1560,97960,zip,95062; CA; Santa Cruz-Watsonville; Santa Cruz County; Santa Cruz,95062,CA,Santa Cruz-Watsonville,Santa Cruz County,Santa Cruz
1561,97958,zip,95060; CA; Santa Cruz-Watsonville; Santa Cruz County; Santa Cruz,95060,CA,Santa Cruz-Watsonville,Santa Cruz County,Santa Cruz
1565,97950,zip,95046; CA; San Jose-Sunnyvale-Santa Clara; Santa Clara County; San Martin,95046,CA,San Jose-Sunnyvale-Santa Clara,Santa Clara County,San Martin
1566,97949,zip,95045; CA; San Jose-Sunnyvale-Santa Clara; San Benito County; San Juan Bautista,95045,CA,San Jose-Sunnyvale-Santa Clara,San Benito County,San Juan Bautista
1567,97947,zip,95043; CA; San Jose-Sunnyvale-Santa Clara; San Benito County; Paicines,95043,CA,San Jose-Sunnyvale-Santa Clara,San Benito County,Paicines
1568,97945,zip,95041; CA; Santa Cruz-Watsonville; Santa Cruz County; Felton,95041,CA,Santa Cruz-Watsonville,Santa Cruz County,Felton
1569,97944,zip,95039; CA; Salinas; Monterey County; Moss Landing,95039,CA,Salinas,Monterey County,Moss Landing
1572,97939,zip,95033; CA; San Jose-Sunnyvale-Santa Clara; Santa Clara County; Lexington Hills,95033,CA,San Jose-Sunnyvale-Santa Clara,Santa Clara County,Lexington Hills
1573,97938,zip,95032; CA; San Jose-Sunnyvale-Santa Clara; Santa Clara County; Los Gatos,95032,CA,San Jose-Sunnyvale-Santa Clara,Santa Clara County,Los Gatos
1575,97933,zip,95023; CA; San Jose-Sunnyvale-Santa Clara; San Benito County; Hollister,95023,CA,San Jose-Sunnyvale-Santa Clara,San Benito County,Hollister
1577,97930,zip,95019; CA; Santa Cruz-Watsonville; Santa Cruz County; Freedom,95019,CA,Santa Cruz-Watsonville,Santa Cruz County,Freedom
1578,97929,zip,95018; CA; Santa Cruz-Watsonville; Santa Cruz County; Felton,95018,CA,Santa Cruz-Watsonville,Santa Cruz County,Felton
1579,97928,zip,95017; CA; Santa Cruz-Watsonville; Santa Cruz County; Davenport,95017,CA,Santa Cruz-Watsonville,Santa Cruz County,Davenport
1581,97924,zip,95012; CA; Salinas; Monterey County; Castroville,95012,CA,Salinas,Monterey County,Castroville
1582,97922,zip,95010; CA; Santa Cruz-Watsonville; Santa Cruz County; Capitola,95010,CA,Santa Cruz-Watsonville,Santa Cruz County,Capitola
1585,97919,zip,95007; CA; Santa Cruz-Watsonville; Santa Cruz County; Boulder Creek,95007,CA,Santa Cruz-Watsonville,Santa Cruz County,Boulder Creek
1586,97918,zip,95006; CA; Santa Cruz-Watsonville; Santa Cruz County; Boulder Creek,95006,CA,Santa Cruz-Watsonville,Santa Cruz County,Boulder Creek
1587,97917,zip,95005; CA; Santa Cruz-Watsonville; Santa Cruz County; Ben Lomond,95005,CA,Santa Cruz-Watsonville,Santa Cruz County,Ben Lomond
1588,97916,zip,95004; CA; Salinas; Monterey County; Aromas,95004,CA,Salinas,Monterey County,Aromas
1589,97915,zip,95003; CA; Santa Cruz-Watsonville; Santa Cruz County; Aptos,95003,CA,Santa Cruz-Watsonville,Santa Cruz County,Aptos
1590,97914,zip,95002; CA; San Jose-Sunnyvale-Santa Clara; Santa Clara County; San Jose,95002,CA,San Jose-Sunnyvale-Santa Clara,Santa Clara County,San Jose
1592,97904,zip,94973; CA; San Francisco-Oakland-Hayward; Marin County; Woodacre,94973,CA,San Francisco-Oakland-Hayward,Marin County,Woodacre
1593,97903,zip,94972; CA; Santa Rosa; Sonoma County; Sebastopol,94972,CA,Santa Rosa,Sonoma County,Sebastopol
1594,97902,zip,94971; CA; San Francisco-Oakland-Hayward; Marin County; Tomales,94971,CA,San Francisco-Oakland-Hayward,Marin County,Tomales
1595,97901,zip,94970; CA; San Francisco-Oakland-Hayward; Marin County; Stinson Beach,94970,CA,San Francisco-Oakland-Hayward,Marin County,Stinson Beach
1598,97898,zip,94964; CA; San Francisco-Oakland-Hayward; Marin County; San Quentin,94964,CA,San Francisco-Oakland-Hayward,Marin County,San Quentin
1599,97897,zip,94963; CA; San Francisco-Oakland-Hayward; Marin County; San Geronimo,94963,CA,San Francisco-Oakland-Hayward,Marin County,San Geronimo
1600,97896,zip,94960; CA; San Francisco-Oakland-Hayward; Marin County; San Anselmo,94960,CA,San Francisco-Oakland-Hayward,Marin County,San Anselmo
1601,97895,zip,94957; CA; San Francisco-Oakland-Hayward; Marin County; Ross,94957,CA,San Francisco-Oakland-Hayward,Marin County,Ross
1602,97894,zip,94956; CA; San Francisco-Oakland-Hayward; Marin County; Point Reyes Station,94956,CA,San Francisco-Oakland-Hayward,Marin County,Point Reyes Station
1603,97892,zip,94954; CA; Santa Rosa; Sonoma County; Petaluma,94954,CA,Santa Rosa,Sonoma County,Petaluma
1604,97890,zip,94952; CA; Santa Rosa; Sonoma County; Petaluma,94952,CA,Santa Rosa,Sonoma County,Petaluma
1605,97889,zip,94951; CA; Santa Rosa; Sonoma County; Penngrove,94951,CA,Santa Rosa,Sonoma County,Penngrove
1606,97888,zip,94950; CA; San Francisco-Oakland-Hayward; Marin County; Point Reyes Station,94950,CA,San Francisco-Oakland-Hayward,Marin County,Point Reyes Station
1607,97887,zip,94949; CA; San Francisco-Oakland-Hayward; Marin County; Novato,94949,CA,San Francisco-Oakland-Hayward,Marin County,Novato
1608,97885,zip,94947; CA; San Francisco-Oakland-Hayward; Marin County; Novato,94947,CA,San Francisco-Oakland-Hayward,Marin County,Novato
1609,97884,zip,94946; CA; San Francisco-Oakland-Hayward; Marin County; Nicasio,94946,CA,San Francisco-Oakland-Hayward,Marin County,Nicasio
1610,97883,zip,94945; CA; San Francisco-Oakland-Hayward; Marin County; Novato,94945,CA,San Francisco-Oakland-Hayward,Marin County,Novato
1612,97880,zip,94940; CA; San Francisco-Oakland-Hayward; Marin County; Marshall,94940,CA,San Francisco-Oakland-Hayward,Marin County,Marshall
1614,97879,zip,94939; CA; San Francisco-Oakland-Hayward; Marin County; Larkspur,94939,CA,San Francisco-Oakland-Hayward,Marin County,Larkspur
1615,97878,zip,94938; CA; San Francisco-Oakland-Hayward; Marin County; Lagunitas,94938,CA,San Francisco-Oakland-Hayward,Marin County,Lagunitas
1616,97877,zip,94937; CA; San Francisco-Oakland-Hayward; Marin County; Inverness,94937,CA,San Francisco-Oakland-Hayward,Marin County,Inverness
1617,97876,zip,94933; CA; San Francisco-Oakland-Hayward; Marin County; Lagunitas,94933,CA,San Francisco-Oakland-Hayward,Marin County,Lagunitas
1618,97875,zip,94931; CA; Santa Rosa; Sonoma County; Cotati,94931,CA,Santa Rosa,Sonoma County,Cotati
1619,97874,zip,94930; CA; San Francisco-Oakland-Hayward; Marin County; Fairfax,94930,CA,San Francisco-Oakland-Hayward,Marin County,Fairfax
1620,97873,zip,94929; CA; San Francisco-Oakland-Hayward; Marin County; Dillon Beach,94929,CA,San Francisco-Oakland-Hayward,Marin County,Dillon Beach
1621,97872,zip,94928; CA; Santa Rosa; Sonoma County; Rohnert Park,94928,CA,Santa Rosa,Sonoma County,Rohnert Park
1623,97869,zip,94925; CA; San Francisco-Oakland-Hayward; Marin County; Corte Madera,94925,CA,San Francisco-Oakland-Hayward,Marin County,Corte Madera
1624,97868,zip,94924; CA; San Francisco-Oakland-Hayward; Marin County; Bolinas,94924,CA,San Francisco-Oakland-Hayward,Marin County,Bolinas
1625,97867,zip,94923; CA; Santa Rosa; Sonoma County; Bodega Bay,94923,CA,Santa Rosa,Sonoma County,Bodega Bay
1626,97866,zip,94922; CA; Santa Rosa; Sonoma County; Occidental,94922,CA,Santa Rosa,Sonoma County,Occidental
1628,97860,zip,94904; CA; San Francisco-Oakland-Hayward; Marin County; Kentfield,94904,CA,San Francisco-Oakland-Hayward,Marin County,Kentfield
1629,97859,zip,94903; CA; San Francisco-Oakland-Hayward; Marin County; San Rafael,94903,CA,San Francisco-Oakland-Hayward,Marin County,San Rafael
1631,97852,zip,94806; CA; San Francisco-Oakland-Hayward; Contra Costa County; San Pablo,94806,CA,San Francisco-Oakland-Hayward,Contra Costa County,San Pablo
1632,97851,zip,94805; CA; San Francisco-Oakland-Hayward; Contra Costa County; Richmond,94805,CA,San Francisco-Oakland-Hayward,Contra Costa County,Richmond
1636,97847,zip,94801; CA; San Francisco-Oakland-Hayward; Contra Costa County; Richmond,94801,CA,San Francisco-Oakland-Hayward,Contra Costa County,Richmond
1637,97844,zip,94710; CA; San Francisco-Oakland-Hayward; Alameda County; Berkeley,94710,CA,San Francisco-Oakland-Hayward,Alameda County,Berkeley
1638,97843,zip,94709; CA; San Francisco-Oakland-Hayward; Alameda County; Berkeley,94709,CA,San Francisco-Oakland-Hayward,Alameda County,Berkeley
1639,97842,zip,94708; CA; San Francisco-Oakland-Hayward; Alameda County; Berkeley,94708,CA,San Francisco-Oakland-Hayward,Alameda County,Berkeley
1640,97841,zip,94707; CA; San Francisco-Oakland-Hayward; Alameda County; Berkeley,94707,CA,San Francisco-Oakland-Hayward,Alameda County,Berkeley
1641,97840,zip,94706; CA; San Francisco-Oakland-Hayward; Alameda County; Albany,94706,CA,San Francisco-Oakland-Hayward,Alameda County,Albany
1643,97839,zip,94705; CA; San Francisco-Oakland-Hayward; Alameda County; Berkeley,94705,CA,San Francisco-Oakland-Hayward,Alameda County,Berkeley
1644,97838,zip,94704; CA; San Francisco-Oakland-Hayward; Alameda County; Berkeley,94704,CA,San Francisco-Oakland-Hayward,Alameda County,Berkeley
1646,97836,zip,94702; CA; San Francisco-Oakland-Hayward; Alameda County; Berkeley,94702,CA,San Francisco-Oakland-Hayward,Alameda County,Berkeley
1647,97822,zip,94621; CA; San Francisco-Oakland-Hayward; Alameda County; Oakland,94621,CA,San Francisco-Oakland-Hayward,Alameda County,Oakland
1649,97819,zip,94618; CA; San Francisco-Oakland-Hayward; Alameda County; Oakland,94618,CA,San Francisco-Oakland-Hayward,Alameda County,Oakland
1650,97814,zip,94612; CA; San Francisco-Oakland-Hayward; Alameda County; Oakland,94612,CA,San Francisco-Oakland-Hayward,Alameda County,Oakland
1661,97802,zip,94599; CA; Napa; Napa County; Yountville,94599,CA,Napa,Napa County,Yountville
1667,97798,zip,94595; CA; San Francisco-Oakland-Hayward; Contra Costa County; Walnut Creek,94595,CA,San Francisco-Oakland-Hayward,Contra Costa County,Walnut Creek
1668,97797,zip,94592; CA; Vallejo-Fairfield; Solano County; Vallejo,94592,CA,Vallejo-Fairfield,Solano County,Vallejo
1669,97796,zip,94591; CA; Vallejo-Fairfield; Solano County; Vallejo,94591,CA,Vallejo-Fairfield,Solano County,Vallejo
1670,97795,zip,94590; CA; Vallejo-Fairfield; Solano County; Vallejo,94590,CA,Vallejo-Fairfield,Solano County,Vallejo
1671,97794,zip,94589; CA; Vallejo-Fairfield; Solano County; Vallejo,94589,CA,Vallejo-Fairfield,Solano County,Vallejo
1674,97791,zip,94586; CA; San Francisco-Oakland-Hayward; Alameda County; Sunol,94586,CA,San Francisco-Oakland-Hayward,Alameda County,Sunol
1675,97790,zip,94585; CA; Vallejo-Fairfield; Solano County; Suisun City,94585,CA,Vallejo-Fairfield,Solano County,Suisun City
1678,97786,zip,94580; CA; San Francisco-Oakland-Hayward; Alameda County; San Lorenzo,94580,CA,San Francisco-Oakland-Hayward,Alameda County,San Lorenzo
1679,97785,zip,94579; CA; San Francisco-Oakland-Hayward; Alameda County; San Leandro,94579,CA,San Francisco-Oakland-Hayward,Alameda County,San Leandro
1680,97784,zip,94578; CA; San Francisco-Oakland-Hayward; Alameda County; San Leandro,94578,CA,San Francisco-Oakland-Hayward,Alameda County,San Leandro
1681,97783,zip,94577; CA; San Francisco-Oakland-Hayward; Alameda County; San Leandro,94577,CA,San Francisco-Oakland-Hayward,Alameda County,San Leandro
1682,97782,zip,94576; CA; Napa; Napa County; Deer Park,94576,CA,Napa,Napa County,Deer Park
1683,97780,zip,94574; CA; Napa; Napa County; Saint Helena,94574,CA,Napa,Napa County,Saint Helena
1685,97778,zip,94572; CA; San Francisco-Oakland-Hayward; Contra Costa County; Rodeo,94572,CA,San Francisco-Oakland-Hayward,Contra Costa County,Rodeo
1686,97777,zip,94571; CA; Vallejo-Fairfield; Solano County; Rio Vista,94571,CA,Vallejo-Fairfield,Solano County,Rio Vista
1687,97775,zip,94569; CA; San Francisco-Oakland-Hayward; Contra Costa County; Port Costa,94569,CA,San Francisco-Oakland-Hayward,Contra Costa County,Port Costa
1689,97773,zip,94567; CA; Napa; Napa County; Pope Valley,94567,CA,Napa,Napa County,Pope Valley
1692,97770,zip,94564; CA; San Francisco-Oakland-Hayward; Contra Costa County; Pinole,94564,CA,San Francisco-Oakland-Hayward,Contra Costa County,Pinole
1694,97769,zip,94563; CA; San Francisco-Oakland-Hayward; Contra Costa County; Orinda,94563,CA,San Francisco-Oakland-Hayward,Contra Costa County,Orinda
1695,97767,zip,94561; CA; San Francisco-Oakland-Hayward; Contra Costa County; Oakley,94561,CA,San Francisco-Oakland-Hayward,Contra Costa County,Oakley
1696,97766,zip,94560; CA; San Francisco-Oakland-Hayward; Alameda County; Newark,94560,CA,San Francisco-Oakland-Hayward,Alameda County,Newark
1697,97765,zip,94559; CA; Napa; Napa County,94559,CA,Napa,Napa County,
1698,97764,zip,94558; CA; Napa; Napa County,94558,CA,Napa,Napa County,
1699,97762,zip,94556; CA; San Francisco-Oakland-Hayward; Contra Costa County; Moraga,94556,CA,San Francisco-Oakland-Hayward,Contra Costa County,Moraga
1702,97759,zip,94552; CA; San Francisco-Oakland-Hayward; Alameda County; Castro Valley,94552,CA,San Francisco-Oakland-Hayward,Alameda County,Castro Valley
1706,97755,zip,94548; CA; San Francisco-Oakland-Hayward; Contra Costa County; Oakley,94548,CA,San Francisco-Oakland-Hayward,Contra Costa County,Oakley
1707,97754,zip,94547; CA; San Francisco-Oakland-Hayward; Contra Costa County; Hercules,94547,CA,San Francisco-Oakland-Hayward,Contra Costa County,Hercules
1709,97752,zip,94545; CA; San Francisco-Oakland-Hayward; Alameda County; Hayward,94545,CA,San Francisco-Oakland-Hayward,Alameda County,Hayward
1712,97749,zip,94542; CA; San Francisco-Oakland-Hayward; Alameda County; Hayward,94542,CA,San Francisco-Oakland-Hayward,Alameda County,Hayward
1717,97742,zip,94535; CA; Vallejo-Fairfield; Solano County; Fairfield,94535,CA,Vallejo-Fairfield,Solano County,Fairfield
1718,97741,zip,94534; CA; Vallejo-Fairfield; Solano County; Fairfield,94534,CA,Vallejo-Fairfield,Solano County,Fairfield
1719,97740,zip,94533; CA; Vallejo-Fairfield; Solano County; Fairfield,94533,CA,Vallejo-Fairfield,Solano County,Fairfield
1721,97738,zip,94530; CA; San Francisco-Oakland-Hayward; Contra Costa County; El Cerrito,94530,CA,San Francisco-Oakland-Hayward,Contra Costa County,El Cerrito
1722,97736,zip,94528; CA; San Francisco-Oakland-Hayward; Contra Costa County; Diablo,94528,CA,San Francisco-Oakland-Hayward,Contra Costa County,Diablo
1724,97733,zip,94525; CA; San Francisco-Oakland-Hayward; Contra Costa County; Crockett,94525,CA,San Francisco-Oakland-Hayward,Contra Costa County,Crockett
1729,97727,zip,94519; CA; San Francisco-Oakland-Hayward; Contra Costa County; Concord,94519,CA,San Francisco-Oakland-Hayward,Contra Costa County,Concord
1730,97726,zip,94518; CA; San Francisco-Oakland-Hayward; Contra Costa County; Concord,94518,CA,San Francisco-Oakland-Hayward,Contra Costa County,Concord
1731,97725,zip,94517; CA; San Francisco-Oakland-Hayward; Contra Costa County; Clayton,94517,CA,San Francisco-Oakland-Hayward,Contra Costa County,Clayton
1732,97724,zip,94516; CA; San Francisco-Oakland-Hayward; Contra Costa County; Canyon,94516,CA,San Francisco-Oakland-Hayward,Contra Costa County,Canyon
1733,97723,zip,94515; CA; Napa; Napa County; Calistoga,94515,CA,Napa,Napa County,Calistoga
1734,97722,zip,94514; CA; San Francisco-Oakland-Hayward; Contra Costa County; Byron,94514,CA,San Francisco-Oakland-Hayward,Contra Costa County,Byron
1736,97720,zip,94512; CA; Vallejo-Fairfield; Solano County; Birds Landing,94512,CA,Vallejo-Fairfield,Solano County,Birds Landing
1737,97719,zip,94511; CA; San Francisco-Oakland-Hayward; Contra Costa County; Bethel Island,94511,CA,San Francisco-Oakland-Hayward,Contra Costa County,Bethel Island
1738,97718,zip,94510; CA; Vallejo-Fairfield; Solano County; Benicia,94510,CA,Vallejo-Fairfield,Solano County,Benicia
1740,97716,zip,94508; CA; Napa; Napa County; Angwin,94508,CA,Napa,Napa County,Angwin
1741,97715,zip,94507; CA; San Francisco-Oakland-Hayward; Contra Costa County; Alamo,94507,CA,San Francisco-Oakland-Hayward,Contra Costa County,Alamo
1743,97713,zip,94503; CA; Napa; Napa County; American Canyon,94503,CA,Napa,Napa County,American Canyon
1744,97712,zip,94502; CA; San Francisco-Oakland-Hayward; Alameda County; Alameda,94502,CA,San Francisco-Oakland-Hayward,Alameda County,Alameda
1749,97701,zip,94401; CA; San Francisco-Oakland-Hayward; San Mateo County; San Mateo,94401,CA,San Francisco-Oakland-Hayward,San Mateo County,San Mateo
1753,97695,zip,94305; CA; San Jose-Sunnyvale-Santa Clara; Santa Clara County; Stanford,94305,CA,San Jose-Sunnyvale-Santa Clara,Santa Clara County,Stanford
1754,97694,zip,94304; CA; San Jose-Sunnyvale-Santa Clara; Santa Clara County; Palo Alto,94304,CA,San Jose-Sunnyvale-Santa Clara,Santa Clara County,Palo Alto
1756,97691,zip,94301; CA; San Jose-Sunnyvale-Santa Clara; Santa Clara County; Palo Alto,94301,CA,San Jose-Sunnyvale-Santa Clara,Santa Clara County,Palo Alto
1764,97610,zip,94158; CA; San Francisco-Oakland-Hayward; San Francisco County; San Francisco,94158,CA,San Francisco-Oakland-Hayward,San Francisco County,San Francisco
1767,97588,zip,94134; CA; San Francisco-Oakland-Hayward; San Francisco County; San Francisco,94134,CA,San Francisco-Oakland-Hayward,San Francisco County,San Francisco
1771,97583,zip,94129; CA; San Francisco-Oakland-Hayward; San Francisco County; San Francisco,94129,CA,San Francisco-Oakland-Hayward,San Francisco County,San Francisco
1772,97581,zip,94127; CA; San Francisco-Oakland-Hayward; San Francisco County; San Francisco,94127,CA,San Francisco-Oakland-Hayward,San Francisco County,San Francisco
1773,97578,zip,94124; CA; San Francisco-Oakland-Hayward; San Francisco County; San Francisco,94124,CA,San Francisco-Oakland-Hayward,San Francisco County,San Francisco
1783,97566,zip,94111; CA; San Francisco-Oakland-Hayward; San Francisco County; San Francisco,94111,CA,San Francisco-Oakland-Hayward,San Francisco County,San Francisco
1790,97559,zip,94104; CA; San Francisco-Oakland-Hayward; San Francisco County; San Francisco,94104,CA,San Francisco-Oakland-Hayward,San Francisco County,San Francisco
1792,97557,zip,94102; CA; San Francisco-Oakland-Hayward; San Francisco County; San Francisco,94102,CA,San Francisco-Oakland-Hayward,San Francisco County,San Francisco
1793,97551,zip,94089; CA; San Jose-Sunnyvale-Santa Clara; Santa Clara County; Sunnyvale,94089,CA,San Jose-Sunnyvale-Santa Clara,Santa Clara County,Sunnyvale
1796,97547,zip,94085; CA; San Jose-Sunnyvale-Santa Clara; Santa Clara County; Sunnyvale,94085,CA,San Jose-Sunnyvale-Santa Clara,Santa Clara County,Sunnyvale
1797,97545,zip,94080; CA; San Francisco-Oakland-Hayward; San Mateo County; South San Francisco,94080,CA,San Francisco-Oakland-Hayward,San Mateo County,South San Francisco
1798,97544,zip,94074; CA; San Francisco-Oakland-Hayward; San Mateo County; San Gregorio,94074,CA,San Francisco-Oakland-Hayward,San Mateo County,San Gregorio
1800,97540,zip,94066; CA; San Francisco-Oakland-Hayward; San Mateo County; San Bruno,94066,CA,San Francisco-Oakland-Hayward,San Mateo County,San Bruno
1802,97539,zip,94065; CA; San Francisco-Oakland-Hayward; San Mateo County; Redwood City,94065,CA,San Francisco-Oakland-Hayward,San Mateo County,Redwood City
1803,97537,zip,94063; CA; San Francisco-Oakland-Hayward; San Mateo County; Redwood City,94063,CA,San Francisco-Oakland-Hayward,San Mateo County,Redwood City
1806,97534,zip,94060; CA; San Francisco-Oakland-Hayward; San Mateo County; Pescadero,94060,CA,San Francisco-Oakland-Hayward,San Mateo County,Pescadero
1807,97531,zip,94044; CA; San Francisco-Oakland-Hayward; San Mateo County; Pacifica,94044,CA,San Francisco-Oakland-Hayward,San Mateo County,Pacifica
1809,97528,zip,94041; CA; San Jose-Sunnyvale-Santa Clara; Santa Clara County; Mountain View,94041,CA,San Jose-Sunnyvale-Santa Clara,Santa Clara County,Mountain View
1811,97525,zip,94038; CA; San Francisco-Oakland-Hayward; San Mateo County; Moss Beach,94038,CA,San Francisco-Oakland-Hayward,San Mateo County,Moss Beach
1812,97524,zip,94037; CA; San Francisco-Oakland-Hayward; San Mateo County; Montara,94037,CA,San Francisco-Oakland-Hayward,San Mateo County,Montara
1813,97521,zip,94030; CA; San Francisco-Oakland-Hayward; San Mateo County; Millbrae,94030,CA,San Francisco-Oakland-Hayward,San Mateo County,Millbrae
1814,97519,zip,94028; CA; San Francisco-Oakland-Hayward; San Mateo County; Portola Valley,94028,CA,San Francisco-Oakland-Hayward,San Mateo County,Portola Valley
1815,97518,zip,94027; CA; San Francisco-Oakland-Hayward; San Mateo County; Atherton,94027,CA,San Francisco-Oakland-Hayward,San Mateo County,Atherton
1817,97515,zip,94024; CA; San Jose-Sunnyvale-Santa Clara; Santa Clara County; Los Altos,94024,CA,San Jose-Sunnyvale-Santa Clara,Santa Clara County,Los Altos
1819,97512,zip,94021; CA; San Francisco-Oakland-Hayward; San Mateo County; Pescadero,94021,CA,San Francisco-Oakland-Hayward,San Mateo County,Pescadero
1820,97511,zip,94020; CA; San Francisco-Oakland-Hayward; San Mateo County; La Honda,94020,CA,San Francisco-Oakland-Hayward,San Mateo County,La Honda
1821,97510,zip,94019; CA; San Francisco-Oakland-Hayward; San Mateo County; Half Moon Bay,94019,CA,San Francisco-Oakland-Hayward,San Mateo County,Half Moon Bay
1822,97509,zip,94018; CA; San Francisco-Oakland-Hayward; San Mateo County; Half Moon Bay,94018,CA,San Francisco-Oakland-Hayward,San Mateo County,Half Moon Bay
1824,97505,zip,94014; CA; San Francisco-Oakland-Hayward; San Mateo County; Daly City,94014,CA,San Francisco-Oakland-Hayward,San Mateo County,Daly City
1826,97500,zip,94005; CA; San Francisco-Oakland-Hayward; San Mateo County; Brisbane,94005,CA,San Francisco-Oakland-Hayward,San Mateo County,Brisbane
1829,97497,zip,93962; CA; Salinas; Monterey County,93962,CA,Salinas,Monterey County,
1830,97496,zip,93960; CA; Salinas; Monterey County; Soledad,93960,CA,Salinas,Monterey County,Soledad
1831,97495,zip,93955; CA; Salinas; Monterey County; Seaside,93955,CA,Salinas,Monterey County,Seaside
1832,97494,zip,93954; CA; Salinas; Monterey County; San Lucas,93954,CA,Salinas,Monterey County,San Lucas
1833,97493,zip,93953; CA; Salinas; Monterey County; Del Monte Forest,93953,CA,Salinas,Monterey County,Del Monte Forest
1834,97492,zip,93950; CA; Salinas; Monterey County; Pacific Grove,93950,CA,Salinas,Monterey County,Pacific Grove
1835,97488,zip,93940; CA; Salinas; Monterey County; Monterey,93940,CA,Salinas,Monterey County,Monterey
1836,97487,zip,93933; CA; Salinas; Monterey County; Marina,93933,CA,Salinas,Monterey County,Marina
1837,97486,zip,93932; CA; Salinas; Monterey County; Lockwood,93932,CA,Salinas,Monterey County,Lockwood
1838,97485,zip,93930; CA; Salinas; Monterey County; King City,93930,CA,Salinas,Monterey County,King City
1839,97484,zip,93928; CA; Salinas; Monterey County; King City,93928,CA,Salinas,Monterey County,King City
1840,97483,zip,93927; CA; Salinas; Monterey County; Greenfield,93927,CA,Salinas,Monterey County,Greenfield
1841,97482,zip,93926; CA; Salinas; Monterey County; Gonzales,93926,CA,Salinas,Monterey County,Gonzales
1842,97481,zip,93925; CA; Salinas; Monterey County; Chualar,93925,CA,Salinas,Monterey County,Chualar
1843,97480,zip,93924; CA; Salinas; Monterey County; Carmel Valley,93924,CA,Salinas,Monterey County,Carmel Valley
1844,97479,zip,93923; CA; Salinas; Monterey County; Carmel-by-the-Sea,93923,CA,Salinas,Monterey County,Carmel-by-the-Sea
1845,97477,zip,93921; CA; Salinas; Monterey County; Carmel-by-the-Sea,93921,CA,Salinas,Monterey County,Carmel-by-the-Sea
1846,97476,zip,93920; CA; Salinas; Monterey County; Big Sur,93920,CA,Salinas,Monterey County,Big Sur
1847,97473,zip,93908; CA; Salinas; Monterey County,93908,CA,Salinas,Monterey County,
1848,97472,zip,93907; CA; Salinas; Monterey County,93907,CA,Salinas,Monterey County,
1849,97471,zip,93906; CA; Salinas; Monterey County,93906,CA,Salinas,Monterey County,
1850,97470,zip,93905; CA; Salinas; Monterey County,93905,CA,Salinas,Monterey County,
1851,97468,zip,93901; CA; Salinas; Monterey County,93901,CA,Salinas,Monterey County,
1852,97436,zip,93728; CA; Fresno; Fresno County,93728,CA,Fresno,Fresno County,
1853,97435,zip,93727; CA; Fresno; Fresno County,93727,CA,Fresno,Fresno County,
1854,97434,zip,93726; CA; Fresno; Fresno County,93726,CA,Fresno,Fresno County,
1855,97433,zip,93725; CA; Fresno; Fresno County,93725,CA,Fresno,Fresno County,
1857,97430,zip,93721; CA; Fresno; Fresno County,93721,CA,Fresno,Fresno County,
1858,97429,zip,93720; CA; Fresno; Fresno County,93720,CA,Fresno,Fresno County,
1859,97422,zip,93711; CA; Fresno; Fresno County,93711,CA,Fresno,Fresno County,
1861,97417,zip,93706; CA; Fresno; Fresno County,93706,CA,Fresno,Fresno County,
1862,97416,zip,93705; CA; Fresno; Fresno County,93705,CA,Fresno,Fresno County,
1863,97415,zip,93704; CA; Fresno; Fresno County,93704,CA,Fresno,Fresno County,
1864,97414,zip,93703; CA; Fresno; Fresno County,93703,CA,Fresno,Fresno County,
1865,97413,zip,93702; CA; Fresno; Fresno County,93702,CA,Fresno,Fresno County,
1866,97412,zip,93701; CA; Fresno; Fresno County,93701,CA,Fresno,Fresno County,
1867,97411,zip,93675; CA; Fresno; Fresno County; Squaw Valley,93675,CA,Fresno,Fresno County,Squaw Valley
1868,97410,zip,93673; CA; Fresno; Fresno County; Kingsburg,93673,CA,Fresno,Fresno County,Kingsburg
1870,97409,zip,93670; CA; Visalia-Porterville; Tulare County; Visalia,93670,CA,Visalia-Porterville,Tulare County,Visalia
1871,97408,zip,93669; CA; Madera; Madera County; North Fork,93669,CA,Madera,Madera County,North Fork
1872,97407,zip,93668; CA; Fresno; Fresno County; Tranquillity,93668,CA,Fresno,Fresno County,Tranquillity
1873,97406,zip,93667; CA; Fresno; Fresno County; Tollhouse,93667,CA,Fresno,Fresno County,Tollhouse
1874,97405,zip,93666; CA; Visalia-Porterville; Tulare County; Dinuba,93666,CA,Visalia-Porterville,Tulare County,Dinuba
1875,97404,zip,93665; CA; Merced; Merced County; Dos Palos,93665,CA,Merced,Merced County,Dos Palos
1876,97403,zip,93664; CA; Fresno; Fresno County; Shaver Lake,93664,CA,Fresno,Fresno County,Shaver Lake
1877,97402,zip,93662; CA; Fresno; Fresno County; Selma,93662,CA,Fresno,Fresno County,Selma
1878,97400,zip,93660; CA; Fresno; Fresno County; San Joaquin,93660,CA,Fresno,Fresno County,San Joaquin
1880,97399,zip,93657; CA; Fresno; Fresno County; Sanger,93657,CA,Fresno,Fresno County,Sanger
1881,97398,zip,93656; CA; Fresno; Fresno County; Riverdale,93656,CA,Fresno,Fresno County,Riverdale
1882,97397,zip,93654; CA; Fresno; Fresno County; Reedley,93654,CA,Fresno,Fresno County,Reedley
1883,97396,zip,93653; CA; Madera; Madera County; Raymond,93653,CA,Madera,Madera County,Raymond
1884,97395,zip,93652; CA; Fresno; Fresno County; Raisin City,93652,CA,Fresno,Fresno County,Raisin City
1885,97394,zip,93651; CA; Fresno; Fresno County; Prather,93651,CA,Fresno,Fresno County,Prather
1886,97393,zip,93650; CA; Fresno; Fresno County,93650,CA,Fresno,Fresno County,
1887,97391,zip,93648; CA; Fresno; Fresno County; Parlier,93648,CA,Fresno,Fresno County,Parlier
1888,97390,zip,93647; CA; Visalia-Porterville; Tulare County; Orosi,93647,CA,Visalia-Porterville,Tulare County,Orosi
1889,97389,zip,93646; CA; Fresno; Fresno County; Orange Cove,93646,CA,Fresno,Fresno County,Orange Cove
1890,97388,zip,93645; CA; Madera; Madera County; O Neals,93645,CA,Madera,Madera County,O Neals
1891,97387,zip,93644; CA; Madera; Madera County; Oakhurst,93644,CA,Madera,Madera County,Oakhurst
1892,97386,zip,93643; CA; Madera; Madera County; North Fork,93643,CA,Madera,Madera County,North Fork
1893,97384,zip,93641; CA; Fresno; Fresno County; Miramonte,93641,CA,Fresno,Fresno County,Miramonte
1894,97383,zip,93640; CA; Fresno; Fresno County; Mendota,93640,CA,Fresno,Fresno County,Mendota
1895,97381,zip,93638; CA; Madera; Madera County,93638,CA,Madera,Madera County,
1896,97380,zip,93637; CA; Madera; Madera County,93637,CA,Madera,Madera County,
1898,97379,zip,93635; CA; Merced; Merced County; Los Banos,93635,CA,Merced,Merced County,Los Banos
1899,97378,zip,93634; CA; Fresno; Fresno County; Lakeshore,93634,CA,Fresno,Fresno County,Lakeshore
1900,97377,zip,93633; CA; Fresno; Fresno County; Hume,93633,CA,Fresno,Fresno County,Hume
1901,97376,zip,93631; CA; Fresno; Fresno County; Kingsburg,93631,CA,Fresno,Fresno County,Kingsburg
1902,97375,zip,93630; CA; Fresno; Fresno County; Kerman,93630,CA,Fresno,Fresno County,Kerman
1903,97374,zip,93628; CA; Fresno; Fresno County; Hume,93628,CA,Fresno,Fresno County,Hume
1904,97372,zip,93626; CA; Fresno; Fresno County; Friant,93626,CA,Fresno,Fresno County,Friant
1905,97371,zip,93625; CA; Fresno; Fresno County; Fowler,93625,CA,Fresno,Fresno County,Fowler
1906,97370,zip,93624; CA; Fresno; Fresno County; Five Points,93624,CA,Fresno,Fresno County,Five Points
1907,97369,zip,93623; CA; Mariposa County; Fish Camp,93623,CA,Mariposa County,Fish Camp,
1908,97368,zip,93622; CA; Fresno; Fresno County; Firebaugh,93622,CA,Fresno,Fresno County,Firebaugh
1909,97367,zip,93621; CA; Fresno; Fresno County; Dunlap,93621,CA,Fresno,Fresno County,Dunlap
1910,97366,zip,93620; CA; Merced; Merced County; Dos Palos,93620,CA,Merced,Merced County,Dos Palos
1912,97364,zip,93618; CA; Visalia-Porterville; Tulare County; Dinuba,93618,CA,Visalia-Porterville,Tulare County,Dinuba
1913,97363,zip,93616; CA; Fresno; Fresno County; Del Rey,93616,CA,Fresno,Fresno County,Del Rey
1914,97362,zip,93615; CA; Visalia-Porterville; Tulare County; Cutler,93615,CA,Visalia-Porterville,Tulare County,Cutler
1915,97361,zip,93614; CA; Madera; Madera County; Coarsegold,93614,CA,Madera,Madera County,Coarsegold
1919,97357,zip,93610; CA; Madera; Madera County; Chowchilla,93610,CA,Madera,Madera County,Chowchilla
1920,97356,zip,93609; CA; Fresno; Fresno County; Caruthers,93609,CA,Fresno,Fresno County,Caruthers
1921,97355,zip,93608; CA; Fresno; Fresno County; Cantua Creek,93608,CA,Fresno,Fresno County,Cantua Creek
1922,97353,zip,93606; CA; Fresno; Fresno County,93606,CA,Fresno,Fresno County,
1923,97352,zip,93605; CA; Fresno; Fresno County; Big Creek,93605,CA,Fresno,Fresno County,Big Creek
1924,97351,zip,93604; CA; Madera; Madera County; Bass Lake,93604,CA,Madera,Madera County,Bass Lake
1925,97350,zip,93603; CA; Visalia-Porterville; Tulare County; Badger,93603,CA,Visalia-Porterville,Tulare County,Badger
1927,97349,zip,93602; CA; Fresno; Fresno County; Auberry,93602,CA,Fresno,Fresno County,Auberry
1928,97348,zip,93601; CA; Madera; Madera County; Ahwahnee,93601,CA,Madera,Madera County,Ahwahnee
1929,97345,zip,93592; CA; Inyo County; Homewood Canyon-Valley Wells,93592,CA,Inyo County,Homewood Canyon-Valley Wells,
1930,97344,zip,93591; CA; Los Angeles-Long Beach-Anaheim; Los Angeles County; Palmdale,93591,CA,Los Angeles-Long Beach-Anaheim,Los Angeles County,Palmdale
1931,97339,zip,93563; CA; Los Angeles-Long Beach-Anaheim; Los Angeles County; Valyermo,93563,CA,Los Angeles-Long Beach-Anaheim,Los Angeles County,Valyermo
1932,97338,zip,93562; CA; Riverside-San Bernardino-Ontario; San Bernardino County; Trona,93562,CA,Riverside-San Bernardino-Ontario,San Bernardino County,Trona
1933,97337,zip,93561; CA; Bakersfield; Kern County; Tehachapi,93561,CA,Bakersfield,Kern County,Tehachapi
1934,97336,zip,93560; CA; Bakersfield; Kern County; Rosamond,93560,CA,Bakersfield,Kern County,Rosamond
1935,97333,zip,93555; CA; Bakersfield; Kern County; Ridgecrest,93555,CA,Bakersfield,Kern County,Ridgecrest
1936,97332,zip,93554; CA; Bakersfield; Kern County; Randsburg,93554,CA,Bakersfield,Kern County,Randsburg
1937,97331,zip,93553; CA; Los Angeles-Long Beach-Anaheim; Los Angeles County; Pearblossom,93553,CA,Los Angeles-Long Beach-Anaheim,Los Angeles County,Pearblossom
1938,97330,zip,93552; CA; Los Angeles-Long Beach-Anaheim; Los Angeles County; Palmdale,93552,CA,Los Angeles-Long Beach-Anaheim,Los Angeles County,Palmdale
1940,97328,zip,93550; CA; Los Angeles-Long Beach-Anaheim; Los Angeles County; Palmdale,93550,CA,Los Angeles-Long Beach-Anaheim,Los Angeles County,Palmdale
1941,97327,zip,93549; CA; Inyo County; Olancha,93549,CA,Inyo County,Olancha,
1942,97326,zip,93546; CA; Mono County; Mammoth Lakes,93546,CA,Mono County,Mammoth Lakes,
1943,97325,zip,93545; CA; Inyo County; Lone Pine,93545,CA,Inyo County,Lone Pine,
1944,97324,zip,93544; CA; Los Angeles-Long Beach-Anaheim; Los Angeles County; Llano,93544,CA,Los Angeles-Long Beach-Anaheim,Los Angeles County,Llano
1945,97323,zip,93543; CA; Los Angeles-Long Beach-Anaheim; Los Angeles County; Littlerock,93543,CA,Los Angeles-Long Beach-Anaheim,Los Angeles County,Littlerock
1946,97321,zip,93541; CA; Mono County; Lee Vining,93541,CA,Mono County,Lee Vining,
1950,97316,zip,93532; CA; Los Angeles-Long Beach-Anaheim; Los Angeles County; Lake Hughes,93532,CA,Los Angeles-Long Beach-Anaheim,Los Angeles County,Lake Hughes
1951,97315,zip,93531; CA; Bakersfield; Kern County; Keene,93531,CA,Bakersfield,Kern County,Keene
1952,97314,zip,93530; CA; Inyo County; Keeler,93530,CA,Inyo County,Keeler,
1953,97313,zip,93529; CA; Mono County; June Lake,93529,CA,Mono County,June Lake,
1954,97311,zip,93527; CA; Bakersfield; Kern County; Inyokern,93527,CA,Bakersfield,Kern County,Inyokern
1955,97310,zip,93526; CA; Inyo County; Independence,93526,CA,Inyo County,Independence,
1957,97308,zip,93523; CA; Bakersfield; Kern County; Edwards,93523,CA,Bakersfield,Kern County,Edwards
1958,97307,zip,93522; CA; Inyo County; Darwin,93522,CA,Inyo County,Darwin,
1959,97306,zip,93519; CA; Bakersfield; Kern County; Mojave,93519,CA,Bakersfield,Kern County,Mojave
1960,97305,zip,93518; CA; Bakersfield; Kern County; Caliente,93518,CA,Bakersfield,Kern County,Caliente
1961,97304,zip,93517; CA; Mono County; Bridgeport,93517,CA,Mono County,Bridgeport,
1962,97303,zip,93516; CA; Bakersfield; Kern County; Boron,93516,CA,Bakersfield,Kern County,Boron
1963,97301,zip,93514; CA; Inyo County; Bishop,93514,CA,Inyo County,Bishop,
1964,97300,zip,93513; CA; Inyo County; Big Pine,93513,CA,Inyo County,Big Pine,
1966,97299,zip,93512; CA; Mono County; Benton,93512,CA,Mono County,Benton,
1967,97298,zip,93510; CA; Los Angeles-Long Beach-Anaheim; Los Angeles County; Acton,93510,CA,Los Angeles-Long Beach-Anaheim,Los Angeles County,Acton
1968,97297,zip,93505; CA; Bakersfield; Kern County; California City,93505,CA,Bakersfield,Kern County,California City
1969,97294,zip,93501; CA; Bakersfield; Kern County; Mojave,93501,CA,Bakersfield,Kern County,Mojave
1970,97291,zip,93465; CA; San Luis Obispo-Paso Robles-Arroyo Grande; San Luis Obispo County; Templeton,93465,CA,San Luis Obispo-Paso Robles-Arroyo Grande,San Luis Obispo County,Templeton
1972,97289,zip,93463; CA; Santa Maria-Santa Barbara; Santa Barbara County; Solvang,93463,CA,Santa Maria-Santa Barbara,Santa Barbara County,Solvang
1973,97288,zip,93461; CA; San Luis Obispo-Paso Robles-Arroyo Grande; San Luis Obispo County; Shandon,93461,CA,San Luis Obispo-Paso Robles-Arroyo Grande,San Luis Obispo County,Shandon
1974,97287,zip,93460; CA; Santa Maria-Santa Barbara; Santa Barbara County; Santa Ynez,93460,CA,Santa Maria-Santa Barbara,Santa Barbara County,Santa Ynez
1975,97286,zip,93458; CA; Santa Maria-Santa Barbara; Santa Barbara County; Santa Maria,93458,CA,Santa Maria-Santa Barbara,Santa Barbara County,Santa Maria
1976,97283,zip,93455; CA; Santa Maria-Santa Barbara; Santa Barbara County; Santa Maria,93455,CA,Santa Maria-Santa Barbara,Santa Barbara County,Santa Maria
1977,97282,zip,93454; CA; Santa Maria-Santa Barbara; Santa Barbara County; Santa Maria,93454,CA,Santa Maria-Santa Barbara,Santa Barbara County,Santa Maria
1978,97281,zip,93453; CA; San Luis Obispo-Paso Robles-Arroyo Grande; San Luis Obispo County; Simmler,93453,CA,San Luis Obispo-Paso Robles-Arroyo Grande,San Luis Obispo County,Simmler
1979,97280,zip,93452; CA; San Luis Obispo-Paso Robles-Arroyo Grande; San Luis Obispo County; San Simeon,93452,CA,San Luis Obispo-Paso Robles-Arroyo Grande,San Luis Obispo County,San Simeon
1981,97279,zip,93451; CA; San Luis Obispo-Paso Robles-Arroyo Grande; San Luis Obispo County; San Miguel,93451,CA,San Luis Obispo-Paso Robles-Arroyo Grande,San Luis Obispo County,San Miguel
1982,97278,zip,93450; CA; Salinas; Monterey County; San Ardo,93450,CA,Salinas,Monterey County,San Ardo
1983,97277,zip,93449; CA; San Luis Obispo-Paso Robles-Arroyo Grande; San Luis Obispo County; Pismo Beach,93449,CA,San Luis Obispo-Paso Robles-Arroyo Grande,San Luis Obispo County,Pismo Beach
1984,97274,zip,93446; CA; San Luis Obispo-Paso Robles-Arroyo Grande; San Luis Obispo County; Paso Robles,93446,CA,San Luis Obispo-Paso Robles-Arroyo Grande,San Luis Obispo County,Paso Robles
1985,97273,zip,93445; CA; San Luis Obispo-Paso Robles-Arroyo Grande; San Luis Obispo County; Oceano,93445,CA,San Luis Obispo-Paso Robles-Arroyo Grande,San Luis Obispo County,Oceano
1986,97272,zip,93444; CA; San Luis Obispo-Paso Robles-Arroyo Grande; San Luis Obispo County; Nipomo,93444,CA,San Luis Obispo-Paso Robles-Arroyo Grande,San Luis Obispo County,Nipomo
1987,97270,zip,93442; CA; San Luis Obispo-Paso Robles-Arroyo Grande; San Luis Obispo County; Morro Bay,93442,CA,San Luis Obispo-Paso Robles-Arroyo Grande,San Luis Obispo County,Morro Bay
1988,97269,zip,93441; CA; Santa Maria-Santa Barbara; Santa Barbara County; Los Olivos,93441,CA,Santa Maria-Santa Barbara,Santa Barbara County,Los Olivos
1989,97268,zip,93440; CA; Santa Maria-Santa Barbara; Santa Barbara County; Los Alamos,93440,CA,Santa Maria-Santa Barbara,Santa Barbara County,Los Alamos
1990,97265,zip,93436; CA; Santa Maria-Santa Barbara; Santa Barbara County; Lompoc,93436,CA,Santa Maria-Santa Barbara,Santa Barbara County,Lompoc
1991,97264,zip,93435; CA; San Luis Obispo-Paso Robles-Arroyo Grande; San Luis Obispo County; Harmony,93435,CA,San Luis Obispo-Paso Robles-Arroyo Grande,San Luis Obispo County,Harmony
1992,97263,zip,93434; CA; Santa Maria-Santa Barbara; Santa Barbara County; Guadalupe,93434,CA,Santa Maria-Santa Barbara,Santa Barbara County,Guadalupe
1993,97262,zip,93433; CA; San Luis Obispo-Paso Robles-Arroyo Grande; San Luis Obispo County; Grover Beach,93433,CA,San Luis Obispo-Paso Robles-Arroyo Grande,San Luis Obispo County,Grover Beach
1994,97261,zip,93432; CA; San Luis Obispo-Paso Robles-Arroyo Grande; San Luis Obispo County; Creston,93432,CA,San Luis Obispo-Paso Robles-Arroyo Grande,San Luis Obispo County,Creston
1995,97260,zip,93430; CA; San Luis Obispo-Paso Robles-Arroyo Grande; San Luis Obispo County; Cayucos,93430,CA,San Luis Obispo-Paso Robles-Arroyo Grande,San Luis Obispo County,Cayucos
1997,97259,zip,93429; CA; Santa Maria-Santa Barbara; Santa Barbara County; Casmalia,93429,CA,Santa Maria-Santa Barbara,Santa Barbara County,Casmalia
1998,97258,zip,93428; CA; San Luis Obispo-Paso Robles-Arroyo Grande; San Luis Obispo County; Cambria,93428,CA,San Luis Obispo-Paso Robles-Arroyo Grande,San Luis Obispo County,Cambria
1999,97257,zip,93427; CA; Santa Maria-Santa Barbara; Santa Barbara County; Buellton,93427,CA,Santa Maria-Santa Barbara,Santa Barbara County,Buellton
2000,97256,zip,93426; CA; San Luis Obispo-Paso Robles-Arroyo Grande; San Luis Obispo County; Bradley,93426,CA,San Luis Obispo-Paso Robles-Arroyo Grande,San Luis Obispo County,Bradley
2001,97255,zip,93424; CA; San Luis Obispo-Paso Robles-Arroyo Grande; San Luis Obispo County; Avila Beach,93424,CA,San Luis Obispo-Paso Robles-Arroyo Grande,San Luis Obispo County,Avila Beach
2002,97253,zip,93422; CA; San Luis Obispo-Paso Robles-Arroyo Grande; San Luis Obispo County; Atascadero,93422,CA,San Luis Obispo-Paso Robles-Arroyo Grande,San Luis Obispo County,Atascadero
2003,97251,zip,93420; CA; San Luis Obispo-Paso Robles-Arroyo Grande; San Luis Obispo County; Arroyo Grande,93420,CA,San Luis Obispo-Paso Robles-Arroyo Grande,San Luis Obispo County,Arroyo Grande
2004,97244,zip,93405; CA; San Luis Obispo-Paso Robles-Arroyo Grande; San Luis Obispo County; San Luis Obispo,93405,CA,San Luis Obispo-Paso Robles-Arroyo Grande,San Luis Obispo County,San Luis Obispo
2005,97242,zip,93402; CA; San Luis Obispo-Paso Robles-Arroyo Grande; San Luis Obispo County; Los Osos,93402,CA,San Luis Obispo-Paso Robles-Arroyo Grande,San Luis Obispo County,Los Osos
2006,97241,zip,93401; CA; San Luis Obispo-Paso Robles-Arroyo Grande; San Luis Obispo County; San Luis Obispo,93401,CA,San Luis Obispo-Paso Robles-Arroyo Grande,San Luis Obispo County,San Luis Obispo
2008,97229,zip,93314; CA; Bakersfield; Kern County; Rosedale,93314,CA,Bakersfield,Kern County,Rosedale
2009,97228,zip,93313; CA; Bakersfield; Kern County,93313,CA,Bakersfield,Kern County,
2011,97226,zip,93311; CA; Bakersfield; Kern County,93311,CA,Bakersfield,Kern County,
2012,97225,zip,93309; CA; Bakersfield; Kern County,93309,CA,Bakersfield,Kern County,
2013,97224,zip,93308; CA; Bakersfield; Kern County; Oildale,93308,CA,Bakersfield,Kern County,Oildale
2014,97223,zip,93307; CA; Bakersfield; Kern County,93307,CA,Bakersfield,Kern County,
2015,97222,zip,93306; CA; Bakersfield; Kern County,93306,CA,Bakersfield,Kern County,
2016,97221,zip,93305; CA; Bakersfield; Kern County,93305,CA,Bakersfield,Kern County,
2017,97220,zip,93304; CA; Bakersfield; Kern County,93304,CA,Bakersfield,Kern County,
2018,97217,zip,93301; CA; Bakersfield; Kern County,93301,CA,Bakersfield,Kern County,
2019,97216,zip,93292; CA; Visalia-Porterville; Tulare County; Visalia,93292,CA,Visalia-Porterville,Tulare County,Visalia
2020,97215,zip,93291; CA; Visalia-Porterville; Tulare County; Visalia,93291,CA,Visalia-Porterville,Tulare County,Visalia
2021,97213,zip,93287; CA; Bakersfield; Kern County; Woody,93287,CA,Bakersfield,Kern County,Woody
2022,97212,zip,93286; CA; Visalia-Porterville; Tulare County; Woodlake,93286,CA,Visalia-Porterville,Tulare County,Woodlake
2023,97211,zip,93285; CA; Bakersfield; Kern County; Wofford Heights,93285,CA,Bakersfield,Kern County,Wofford Heights
2024,97210,zip,93283; CA; Bakersfield; Kern County; Weldon,93283,CA,Bakersfield,Kern County,Weldon
2026,97209,zip,93282; CA; Visalia-Porterville; Tulare County; Tulare,93282,CA,Visalia-Porterville,Tulare County,Tulare
2027,97208,zip,93280; CA; Bakersfield; Kern County; Wasco,93280,CA,Bakersfield,Kern County,Wasco
2028,97205,zip,93277; CA; Visalia-Porterville; Tulare County; Visalia,93277,CA,Visalia-Porterville,Tulare County,Visalia
2029,97204,zip,93276; CA; Bakersfield; Kern County; Tupman,93276,CA,Bakersfield,Kern County,Tupman
2030,97202,zip,93274; CA; Visalia-Porterville; Tulare County; Tulare,93274,CA,Visalia-Porterville,Tulare County,Tulare
2031,97201,zip,93272; CA; Visalia-Porterville; Tulare County; Tipton,93272,CA,Visalia-Porterville,Tulare County,Tipton
2032,97200,zip,93271; CA; Visalia-Porterville; Tulare County; Three Rivers,93271,CA,Visalia-Porterville,Tulare County,Three Rivers
2035,97199,zip,93270; CA; Visalia-Porterville; Tulare County; Terra Bella,93270,CA,Visalia-Porterville,Tulare County,Terra Bella
2036,97198,zip,93268; CA; Bakersfield; Kern County; Taft,93268,CA,Bakersfield,Kern County,Taft
2037,97197,zip,93267; CA; Visalia-Porterville; Tulare County; Strathmore,93267,CA,Visalia-Porterville,Tulare County,Strathmore
2038,97196,zip,93266; CA; Hanford-Corcoran; Kings County; Stratford,93266,CA,Hanford-Corcoran,Kings County,Stratford
2039,97195,zip,93265; CA; Visalia-Porterville; Tulare County; Springville,93265,CA,Visalia-Porterville,Tulare County,Springville
2040,97194,zip,93263; CA; Bakersfield; Kern County; Shafter,93263,CA,Bakersfield,Kern County,Shafter
2041,97192,zip,93261; CA; Visalia-Porterville; Tulare County; Richgrove,93261,CA,Visalia-Porterville,Tulare County,Richgrove
2042,97191,zip,93260; CA; Visalia-Porterville; Tulare County; Posey,93260,CA,Visalia-Porterville,Tulare County,Posey
2043,97190,zip,93258; CA; Visalia-Porterville; Tulare County; Tulare,93258,CA,Visalia-Porterville,Tulare County,Tulare
2045,97189,zip,93257; CA; Visalia-Porterville; Tulare County; Porterville,93257,CA,Visalia-Porterville,Tulare County,Porterville
2046,97188,zip,93256; CA; Visalia-Porterville; Tulare County; Pixley,93256,CA,Visalia-Porterville,Tulare County,Pixley
2047,97187,zip,93255; CA; Bakersfield; Kern County; Onyx,93255,CA,Bakersfield,Kern County,Onyx
2048,97185,zip,93252; CA; Oxnard-Thousand Oaks-Ventura; Ventura County; Maricopa,93252,CA,Oxnard-Thousand Oaks-Ventura,Ventura County,Maricopa
2049,97184,zip,93251; CA; Bakersfield; Kern County; Mc Kittrick,93251,CA,Bakersfield,Kern County,Mc Kittrick
2050,97183,zip,93250; CA; Bakersfield; Kern County; Mc Farland,93250,CA,Bakersfield,Kern County,Mc Farland
2051,97182,zip,93249; CA; Bakersfield; Kern County; Lost Hills,93249,CA,Bakersfield,Kern County,Lost Hills
2052,97181,zip,93247; CA; Visalia-Porterville; Tulare County; Lindsay,93247,CA,Visalia-Porterville,Tulare County,Lindsay
2053,97179,zip,93245; CA; Hanford-Corcoran; Kings County; Lemoore,93245,CA,Hanford-Corcoran,Kings County,Lemoore
2054,97178,zip,93244; CA; Visalia-Porterville; Tulare County; Lemon Cove,93244,CA,Visalia-Porterville,Tulare County,Lemon Cove
2055,97177,zip,93243; CA; Bakersfield; Kern County; Lebec,93243,CA,Bakersfield,Kern County,Lebec
2056,97176,zip,93242; CA; Fresno; Fresno County; Laton,93242,CA,Fresno,Fresno County,Laton
2057,97175,zip,93241; CA; Bakersfield; Kern County; Lamont,93241,CA,Bakersfield,Kern County,Lamont
2058,97174,zip,93240; CA; Bakersfield; Kern County; Lake Isabella,93240,CA,Bakersfield,Kern County,Lake Isabella
2059,97173,zip,93239; CA; Hanford-Corcoran; Kings County; Kettleman City,93239,CA,Hanford-Corcoran,Kings County,Kettleman City
2060,97172,zip,93238; CA; Bakersfield; Kern County; Kernville,93238,CA,Bakersfield,Kern County,Kernville
2061,97170,zip,93235; CA; Visalia-Porterville; Tulare County; Ivanhoe,93235,CA,Visalia-Porterville,Tulare County,Ivanhoe
2063,97169,zip,93234; CA; Fresno; Fresno County; Huron,93234,CA,Fresno,Fresno County,Huron
2064,97167,zip,93230; CA; Hanford-Corcoran; Kings County; Hanford,93230,CA,Hanford-Corcoran,Kings County,Hanford
2065,97166,zip,93227; CA; Visalia-Porterville; Tulare County; Visalia,93227,CA,Visalia-Porterville,Tulare County,Visalia
2066,97165,zip,93226; CA; Bakersfield; Kern County; Glennville,93226,CA,Bakersfield,Kern County,Glennville
2067,97164,zip,93225; CA; Bakersfield; Kern County; Frazier Park,93225,CA,Bakersfield,Kern County,Frazier Park
2068,97163,zip,93224; CA; Bakersfield; Kern County; Fellows,93224,CA,Bakersfield,Kern County,Fellows
2069,97162,zip,93223; CA; Visalia-Porterville; Tulare County; Farmersville,93223,CA,Visalia-Porterville,Tulare County,Farmersville
2070,97161,zip,93222; CA; Bakersfield; Kern County; Pine Mountain Club,93222,CA,Bakersfield,Kern County,Pine Mountain Club
2071,97160,zip,93221; CA; Visalia-Porterville; Tulare County; Exeter,93221,CA,Visalia-Porterville,Tulare County,Exeter
2072,97158,zip,93219; CA; Visalia-Porterville; Tulare County; Earlimart,93219,CA,Visalia-Porterville,Tulare County,Earlimart
2073,97157,zip,93218; CA; Visalia-Porterville; Tulare County; Ducor,93218,CA,Visalia-Porterville,Tulare County,Ducor
2074,97155,zip,93215; CA; Bakersfield; Kern County; Delano,93215,CA,Bakersfield,Kern County,Delano
2075,97154,zip,93212; CA; Hanford-Corcoran; Kings County; Corcoran,93212,CA,Hanford-Corcoran,Kings County,Corcoran
2076,97153,zip,93210; CA; Fresno; Fresno County; Coalinga,93210,CA,Fresno,Fresno County,Coalinga
2077,97151,zip,93207; CA; Visalia-Porterville; Tulare County; California Hot Springs,93207,CA,Visalia-Porterville,Tulare County,California Hot Springs
2078,97150,zip,93206; CA; Bakersfield; Kern County; Buttonwillow,93206,CA,Bakersfield,Kern County,Buttonwillow
2079,97149,zip,93205; CA; Bakersfield; Kern County; Bodfish,93205,CA,Bakersfield,Kern County,Bodfish
2080,97148,zip,93204; CA; Hanford-Corcoran; Kings County; Avenal,93204,CA,Hanford-Corcoran,Kings County,Avenal
2081,97147,zip,93203; CA; Bakersfield; Kern County; Arvin,93203,CA,Bakersfield,Kern County,Arvin
2082,97146,zip,93202; CA; Hanford-Corcoran; Kings County; Armona,93202,CA,Hanford-Corcoran,Kings County,Armona
2083,97145,zip,93201; CA; Visalia-Porterville; Tulare County; Alpaugh,93201,CA,Visalia-Porterville,Tulare County,Alpaugh
2085,97135,zip,93117; CA; Santa Maria-Santa Barbara; Santa Barbara County; Goleta,93117,CA,Santa Maria-Santa Barbara,Santa Barbara County,Goleta
2086,97133,zip,93111; CA; Santa Maria-Santa Barbara; Santa Barbara County; Santa Barbara,93111,CA,Santa Maria-Santa Barbara,Santa Barbara County,Santa Barbara
2087,97132,zip,93110; CA; Santa Maria-Santa Barbara; Santa Barbara County; Santa Barbara,93110,CA,Santa Maria-Santa Barbara,Santa Barbara County,Santa Barbara
2088,97131,zip,93109; CA; Santa Maria-Santa Barbara; Santa Barbara County; Santa Barbara,93109,CA,Santa Maria-Santa Barbara,Santa Barbara County,Santa Barbara
2089,97130,zip,93108; CA; Santa Maria-Santa Barbara; Santa Barbara County; Montecito,93108,CA,Santa Maria-Santa Barbara,Santa Barbara County,Montecito
2090,97127,zip,93105; CA; Santa Maria-Santa Barbara; Santa Barbara County; Santa Barbara,93105,CA,Santa Maria-Santa Barbara,Santa Barbara County,Santa Barbara
2091,97126,zip,93103; CA; Santa Maria-Santa Barbara; Santa Barbara County; Santa Barbara,93103,CA,Santa Maria-Santa Barbara,Santa Barbara County,Santa Barbara
2092,97124,zip,93101; CA; Santa Maria-Santa Barbara; Santa Barbara County; Santa Barbara,93101,CA,Santa Maria-Santa Barbara,Santa Barbara County,Santa Barbara
2093,97120,zip,93067; CA; Santa Maria-Santa Barbara; Santa Barbara County; Summerland,93067,CA,Santa Maria-Santa Barbara,Santa Barbara County,Summerland
2094,97119,zip,93066; CA; Oxnard-Thousand Oaks-Ventura; Ventura County; Somis,93066,CA,Oxnard-Thousand Oaks-Ventura,Ventura County,Somis
2095,97118,zip,93065; CA; Oxnard-Thousand Oaks-Ventura; Ventura County; Simi Valley,93065,CA,Oxnard-Thousand Oaks-Ventura,Ventura County,Simi Valley
2097,97113,zip,93060; CA; Oxnard-Thousand Oaks-Ventura; Ventura County; Santa Paula,93060,CA,Oxnard-Thousand Oaks-Ventura,Ventura County,Santa Paula
2100,97108,zip,93040; CA; Oxnard-Thousand Oaks-Ventura; Ventura County; Fillmore,93040,CA,Oxnard-Thousand Oaks-Ventura,Ventura County,Fillmore
2104,97101,zip,93030; CA; Oxnard-Thousand Oaks-Ventura; Ventura County; Oxnard,93030,CA,Oxnard-Thousand Oaks-Ventura,Ventura County,Oxnard
2107,97099,zip,93023; CA; Oxnard-Thousand Oaks-Ventura; Ventura County; Ojai,93023,CA,Oxnard-Thousand Oaks-Ventura,Ventura County,Ojai
2108,97098,zip,93022; CA; Oxnard-Thousand Oaks-Ventura; Ventura County; Oak View,93022,CA,Oxnard-Thousand Oaks-Ventura,Ventura County,Oak View
2110,97094,zip,93015; CA; Oxnard-Thousand Oaks-Ventura; Ventura County; Fillmore,93015,CA,Oxnard-Thousand Oaks-Ventura,Ventura County,Fillmore
2111,97092,zip,93013; CA; Santa Maria-Santa Barbara; Santa Barbara County; Carpinteria,93013,CA,Santa Maria-Santa Barbara,Santa Barbara County,Carpinteria
2114,97084,zip,93004; CA; Oxnard-Thousand Oaks-Ventura; Ventura County; Ventura,93004,CA,Oxnard-Thousand Oaks-Ventura,Ventura County,Ventura
2132,97059,zip,92861; CA; Los Angeles-Long Beach-Anaheim; Orange County; Villa Park,92861,CA,Los Angeles-Long Beach-Anaheim,Orange County,Villa Park
2133,97058,zip,92860; CA; Riverside-San Bernardino-Ontario; Riverside County; Norco,92860,CA,Riverside-San Bernardino-Ontario,Riverside County,Norco
2134,97052,zip,92845; CA; Los Angeles-Long Beach-Anaheim; Orange County; Garden Grove,92845,CA,Los Angeles-Long Beach-Anaheim,Orange County,Garden Grove
2135,97051,zip,92844; CA; Los Angeles-Long Beach-Anaheim; Orange County; Garden Grove,92844,CA,Los Angeles-Long Beach-Anaheim,Orange County,Garden Grove
2136,97050,zip,92843; CA; Los Angeles-Long Beach-Anaheim; Orange County; Garden Grove,92843,CA,Los Angeles-Long Beach-Anaheim,Orange County,Garden Grove
2137,97048,zip,92841; CA; Los Angeles-Long Beach-Anaheim; Orange County; Garden Grove,92841,CA,Los Angeles-Long Beach-Anaheim,Orange County,Garden Grove
2143,97037,zip,92823; CA; Los Angeles-Long Beach-Anaheim; Orange County; Brea,92823,CA,Los Angeles-Long Beach-Anaheim,Orange County,Brea
2151,97020,zip,92801; CA; Los Angeles-Long Beach-Anaheim; Orange County; Anaheim,92801,CA,Los Angeles-Long Beach-Anaheim,Orange County,Anaheim
2155,97007,zip,92707; CA; Los Angeles-Long Beach-Anaheim; Orange County; Santa Ana,92707,CA,Los Angeles-Long Beach-Anaheim,Orange County,Santa Ana
2156,97006,zip,92706; CA; Los Angeles-Long Beach-Anaheim; Orange County; Santa Ana,92706,CA,Los Angeles-Long Beach-Anaheim,Orange County,Santa Ana
2159,97003,zip,92703; CA; Los Angeles-Long Beach-Anaheim; Orange County; Santa Ana,92703,CA,Los Angeles-Long Beach-Anaheim,Orange County,Santa Ana
2171,96986,zip,92676; CA; Los Angeles-Long Beach-Anaheim; Orange County; Silverado,92676,CA,Los Angeles-Long Beach-Anaheim,Orange County,Silverado
2176,96980,zip,92662; CA; Los Angeles-Long Beach-Anaheim; Orange County; Newport Beach,92662,CA,Los Angeles-Long Beach-Anaheim,Orange County,Newport Beach
2181,96973,zip,92655; CA; Los Angeles-Long Beach-Anaheim; Orange County; Westminster,92655,CA,Los Angeles-Long Beach-Anaheim,Orange County,Westminster
2199,96951,zip,92617; CA; Los Angeles-Long Beach-Anaheim; Orange County; Irvine,92617,CA,Los Angeles-Long Beach-Anaheim,Orange County,Irvine
2209,96937,zip,92596; CA; Riverside-San Bernardino-Ontario; Riverside County; Winchester,92596,CA,Riverside-San Bernardino-Ontario,Riverside County,Winchester
2213,96932,zip,92590; CA; Riverside-San Bernardino-Ontario; Riverside County; Temecula,92590,CA,Riverside-San Bernardino-Ontario,Riverside County,Temecula
2214,96930,zip,92587; CA; Riverside-San Bernardino-Ontario; Riverside County; Canyon Lake,92587,CA,Riverside-San Bernardino-Ontario,Riverside County,Canyon Lake
2216,96928,zip,92585; CA; Riverside-San Bernardino-Ontario; Riverside County; Menifee,92585,CA,Riverside-San Bernardino-Ontario,Riverside County,Menifee
2219,96925,zip,92582; CA; Riverside-San Bernardino-Ontario; Riverside County; San Jacinto,92582,CA,Riverside-San Bernardino-Ontario,Riverside County,San Jacinto
2221,96921,zip,92570; CA; Riverside-San Bernardino-Ontario; Riverside County; Perris,92570,CA,Riverside-San Bernardino-Ontario,Riverside County,Perris
2222,96920,zip,92567; CA; Riverside-San Bernardino-Ontario; Riverside County; Nuevo,92567,CA,Riverside-San Bernardino-Ontario,Riverside County,Nuevo
2225,96916,zip,92561; CA; Riverside-San Bernardino-Ontario; Riverside County; Mountain Center,92561,CA,Riverside-San Bernardino-Ontario,Riverside County,Mountain Center
2227,96913,zip,92555; CA; Riverside-San Bernardino-Ontario; Riverside County; Moreno Valley,92555,CA,Riverside-San Bernardino-Ontario,Riverside County,Moreno Valley
2230,96908,zip,92549; CA; Riverside-San Bernardino-Ontario; Riverside County; Idyllwild,92549,CA,Riverside-San Bernardino-Ontario,Riverside County,Idyllwild
2231,96907,zip,92548; CA; Riverside-San Bernardino-Ontario; Riverside County; Homeland,92548,CA,Riverside-San Bernardino-Ontario,Riverside County,Homeland
2233,96904,zip,92544; CA; Riverside-San Bernardino-Ontario; Riverside County; Hemet,92544,CA,Riverside-San Bernardino-Ontario,Riverside County,Hemet
2235,96902,zip,92539; CA; Riverside-San Bernardino-Ontario; Riverside County; Anza,92539,CA,Riverside-San Bernardino-Ontario,Riverside County,Anza
2236,96901,zip,92536; CA; Riverside-San Bernardino-Ontario; Riverside County; Aguanga,92536,CA,Riverside-San Bernardino-Ontario,Riverside County,Aguanga
2244,96885,zip,92506; CA; Riverside-San Bernardino-Ontario; Riverside County; Riverside,92506,CA,Riverside-San Bernardino-Ontario,Riverside County,Riverside
2248,96880,zip,92501; CA; Riverside-San Bernardino-Ontario; Riverside County; Riverside,92501,CA,Riverside-San Bernardino-Ontario,Riverside County,Riverside
2249,96871,zip,92411; CA; Riverside-San Bernardino-Ontario; San Bernardino County; San Bernardino,92411,CA,Riverside-San Bernardino-Ontario,San Bernardino County,San Bernardino
2250,96870,zip,92410; CA; Riverside-San Bernardino-Ontario; San Bernardino County; San Bernardino,92410,CA,Riverside-San Bernardino-Ontario,San Bernardino County,San Bernardino
2252,96869,zip,92408; CA; Riverside-San Bernardino-Ontario; San Bernardino County; San Bernardino,92408,CA,Riverside-San Bernardino-Ontario,San Bernardino County,San Bernardino
2254,96866,zip,92405; CA; Riverside-San Bernardino-Ontario; San Bernardino County; San Bernardino,92405,CA,Riverside-San Bernardino-Ontario,San Bernardino County,San Bernardino
2256,96862,zip,92401; CA; Riverside-San Bernardino-Ontario; San Bernardino County; San Bernardino,92401,CA,Riverside-San Bernardino-Ontario,San Bernardino County,San Bernardino
2258,96860,zip,92398; CA; Riverside-San Bernardino-Ontario; San Bernardino County; Yermo,92398,CA,Riverside-San Bernardino-Ontario,San Bernardino County,Yermo
2260,96859,zip,92397; CA; Riverside-San Bernardino-Ontario; San Bernardino County; Wrightwood,92397,CA,Riverside-San Bernardino-Ontario,San Bernardino County,Wrightwood
2264,96854,zip,92391; CA; Riverside-San Bernardino-Ontario; San Bernardino County; Lake Arrowhead,92391,CA,Riverside-San Bernardino-Ontario,San Bernardino County,Lake Arrowhead
2265,96853,zip,92389; CA; Inyo County; Shoshone,92389,CA,Inyo County,Shoshone,
2266,96852,zip,92386; CA; Riverside-San Bernardino-Ontario; San Bernardino County; Big Bear City,92386,CA,Riverside-San Bernardino-Ontario,San Bernardino County,Big Bear City
2267,96851,zip,92385; CA; Riverside-San Bernardino-Ontario; San Bernardino County; Lake Arrowhead,92385,CA,Riverside-San Bernardino-Ontario,San Bernardino County,Lake Arrowhead
2269,96849,zip,92382; CA; Riverside-San Bernardino-Ontario; San Bernardino County; Running Springs,92382,CA,Riverside-San Bernardino-Ontario,San Bernardino County,Running Springs
2270,96848,zip,92378; CA; Riverside-San Bernardino-Ontario; San Bernardino County; Lake Arrowhead,92378,CA,Riverside-San Bernardino-Ontario,San Bernardino County,Lake Arrowhead
2271,96847,zip,92377; CA; Riverside-San Bernardino-Ontario; San Bernardino County; Rialto,92377,CA,Riverside-San Bernardino-Ontario,San Bernardino County,Rialto
2272,96846,zip,92376; CA; Riverside-San Bernardino-Ontario; San Bernardino County; Rialto,92376,CA,Riverside-San Bernardino-Ontario,San Bernardino County,Rialto
2275,96842,zip,92372; CA; Riverside-San Bernardino-Ontario; San Bernardino County; Pinon Hills,92372,CA,Riverside-San Bernardino-Ontario,San Bernardino County,Pinon Hills
2276,96841,zip,92371; CA; Riverside-San Bernardino-Ontario; San Bernardino County; Phelan,92371,CA,Riverside-San Bernardino-Ontario,San Bernardino County,Phelan
2278,96839,zip,92368; CA; Riverside-San Bernardino-Ontario; San Bernardino County; Helendale,92368,CA,Riverside-San Bernardino-Ontario,San Bernardino County,Helendale
2279,96837,zip,92365; CA; Riverside-San Bernardino-Ontario; San Bernardino County; Newberry Springs,92365,CA,Riverside-San Bernardino-Ontario,San Bernardino County,Newberry Springs
2280,96835,zip,92363; CA; Riverside-San Bernardino-Ontario; San Bernardino County; Needles,92363,CA,Riverside-San Bernardino-Ontario,San Bernardino County,Needles
2281,96834,zip,92359; CA; Riverside-San Bernardino-Ontario; San Bernardino County; Mentone,92359,CA,Riverside-San Bernardino-Ontario,San Bernardino County,Mentone
2282,96833,zip,92358; CA; Riverside-San Bernardino-Ontario; San Bernardino County; Lytle Creek,92358,CA,Riverside-San Bernardino-Ontario,San Bernardino County,Lytle Creek
2283,96831,zip,92356; CA; Riverside-San Bernardino-Ontario; San Bernardino County; Lucerne Valley,92356,CA,Riverside-San Bernardino-Ontario,San Bernardino County,Lucerne Valley
2286,96829,zip,92352; CA; Riverside-San Bernardino-Ontario; San Bernardino County; Lake Arrowhead,92352,CA,Riverside-San Bernardino-Ontario,San Bernardino County,Lake Arrowhead
2287,96827,zip,92347; CA; Riverside-San Bernardino-Ontario; San Bernardino County; Hinkley,92347,CA,Riverside-San Bernardino-Ontario,San Bernardino County,Hinkley
2290,96824,zip,92344; CA; Riverside-San Bernardino-Ontario; San Bernardino County; Hesperia,92344,CA,Riverside-San Bernardino-Ontario,San Bernardino County,Hesperia
2291,96823,zip,92342; CA; Riverside-San Bernardino-Ontario; San Bernardino County; Helendale,92342,CA,Riverside-San Bernardino-Ontario,San Bernardino County,Helendale
2292,96822,zip,92341; CA; Riverside-San Bernardino-Ontario; San Bernardino County; Green Valley Lake,92341,CA,Riverside-San Bernardino-Ontario,San Bernardino County,Green Valley Lake
2293,96820,zip,92339; CA; Riverside-San Bernardino-Ontario; San Bernardino County; Forest Falls,92339,CA,Riverside-San Bernardino-Ontario,San Bernardino County,Forest Falls
2298,96814,zip,92333; CA; Riverside-San Bernardino-Ontario; San Bernardino County; Fawnskin,92333,CA,Riverside-San Bernardino-Ontario,San Bernardino County,Fawnskin
2299,96813,zip,92332; CA; Riverside-San Bernardino-Ontario; San Bernardino County; Essex,92332,CA,Riverside-San Bernardino-Ontario,San Bernardino County,Essex
2300,96810,zip,92327; CA; Riverside-San Bernardino-Ontario; San Bernardino County; Daggett,92327,CA,Riverside-San Bernardino-Ontario,San Bernardino County,Daggett
2302,96808,zip,92325; CA; Riverside-San Bernardino-Ontario; San Bernardino County; Crestline,92325,CA,Riverside-San Bernardino-Ontario,San Bernardino County,Crestline
2304,96805,zip,92322; CA; Riverside-San Bernardino-Ontario; San Bernardino County; Crestline,92322,CA,Riverside-San Bernardino-Ontario,San Bernardino County,Crestline
2305,96804,zip,92321; CA; Riverside-San Bernardino-Ontario; San Bernardino County; Lake Arrowhead,92321,CA,Riverside-San Bernardino-Ontario,San Bernardino County,Lake Arrowhead
2306,96803,zip,92320; CA; Riverside-San Bernardino-Ontario; Riverside County; Calimesa,92320,CA,Riverside-San Bernardino-Ontario,Riverside County,Calimesa
2307,96802,zip,92318; CA; Riverside-San Bernardino-Ontario; San Bernardino County; Loma Linda,92318,CA,Riverside-San Bernardino-Ontario,San Bernardino County,Loma Linda
2308,96801,zip,92317; CA; Riverside-San Bernardino-Ontario; San Bernardino County; Lake Arrowhead,92317,CA,Riverside-San Bernardino-Ontario,San Bernardino County,Lake Arrowhead
2309,96800,zip,92316; CA; Riverside-San Bernardino-Ontario; San Bernardino County; Bloomington,92316,CA,Riverside-San Bernardino-Ontario,San Bernardino County,Bloomington
2311,96799,zip,92315; CA; Riverside-San Bernardino-Ontario; San Bernardino County; Big Bear Lake,92315,CA,Riverside-San Bernardino-Ontario,San Bernardino County,Big Bear Lake
2312,96798,zip,92314; CA; Riverside-San Bernardino-Ontario; San Bernardino County; Big Bear City,92314,CA,Riverside-San Bernardino-Ontario,San Bernardino County,Big Bear City
2313,96797,zip,92313; CA; Riverside-San Bernardino-Ontario; San Bernardino County; Grand Terrace,92313,CA,Riverside-San Bernardino-Ontario,San Bernardino County,Grand Terrace
2315,96793,zip,92309; CA; Riverside-San Bernardino-Ontario; San Bernardino County; Baker,92309,CA,Riverside-San Bernardino-Ontario,San Bernardino County,Baker
2316,96792,zip,92308; CA; Riverside-San Bernardino-Ontario; San Bernardino County; Apple Valley,92308,CA,Riverside-San Bernardino-Ontario,San Bernardino County,Apple Valley
2317,96791,zip,92307; CA; Riverside-San Bernardino-Ontario; San Bernardino County; Apple Valley,92307,CA,Riverside-San Bernardino-Ontario,San Bernardino County,Apple Valley
2318,96790,zip,92305; CA; Riverside-San Bernardino-Ontario; San Bernardino County; Angelus Oaks,92305,CA,Riverside-San Bernardino-Ontario,San Bernardino County,Angelus Oaks
2320,96785,zip,92285; CA; Riverside-San Bernardino-Ontario; San Bernardino County; Landers,92285,CA,Riverside-San Bernardino-Ontario,San Bernardino County,Landers
2322,96782,zip,92282; CA; Riverside-San Bernardino-Ontario; Riverside County; White Water,92282,CA,Riverside-San Bernardino-Ontario,Riverside County,White Water
2323,96781,zip,92281; CA; El Centro; Imperial County; Westmorland,92281,CA,El Centro,Imperial County,Westmorland
2325,96777,zip,92276; CA; Riverside-San Bernardino-Ontario; Riverside County; Thousand Palms,92276,CA,Riverside-San Bernardino-Ontario,Riverside County,Thousand Palms
2326,96776,zip,92275; CA; El Centro; Imperial County; Thermal,92275,CA,El Centro,Imperial County,Thermal
2327,96775,zip,92274; CA; El Centro; Imperial County; Thermal,92274,CA,El Centro,Imperial County,Thermal
2328,96774,zip,92273; CA; El Centro; Imperial County,92273,CA,El Centro,Imperial County,
2330,96772,zip,92268; CA; Riverside-San Bernardino-Ontario; San Bernardino County; Yucca Valley,92268,CA,Riverside-San Bernardino-Ontario,San Bernardino County,Yucca Valley
2335,96763,zip,92258; CA; Riverside-San Bernardino-Ontario; Riverside County; Desert Hot Springs,92258,CA,Riverside-San Bernardino-Ontario,Riverside County,Desert Hot Springs
2336,96761,zip,92256; CA; Riverside-San Bernardino-Ontario; San Bernardino County; Morongo Valley,92256,CA,Riverside-San Bernardino-Ontario,San Bernardino County,Morongo Valley
2337,96759,zip,92254; CA; Riverside-San Bernardino-Ontario; Riverside County; Mecca,92254,CA,Riverside-San Bernardino-Ontario,Riverside County,Mecca
2339,96757,zip,92252; CA; Riverside-San Bernardino-Ontario; San Bernardino County; Joshua Tree,92252,CA,Riverside-San Bernardino-Ontario,San Bernardino County,Joshua Tree
2340,96756,zip,92251; CA; El Centro; Imperial County; Imperial,92251,CA,El Centro,Imperial County,Imperial
2341,96755,zip,92250; CA; El Centro; Imperial County; Holtville,92250,CA,El Centro,Imperial County,Holtville
2342,96754,zip,92249; CA; El Centro; Imperial County; Heber,92249,CA,El Centro,Imperial County,Heber
2343,96750,zip,92243; CA; El Centro; Imperial County,92243,CA,El Centro,Imperial County,
2345,96749,zip,92242; CA; Riverside-San Bernardino-Ontario; San Bernardino County; Earp,92242,CA,Riverside-San Bernardino-Ontario,San Bernardino County,Earp
2346,96748,zip,92241; CA; Riverside-San Bernardino-Ontario; Riverside County; Desert Hot Springs,92241,CA,Riverside-San Bernardino-Ontario,Riverside County,Desert Hot Springs
2348,96746,zip,92239; CA; Riverside-San Bernardino-Ontario; Riverside County; Desert Center,92239,CA,Riverside-San Bernardino-Ontario,Riverside County,Desert Center
2349,96745,zip,92236; CA; Riverside-San Bernardino-Ontario; Riverside County; Coachella,92236,CA,Riverside-San Bernardino-Ontario,Riverside County,Coachella
2351,96742,zip,92233; CA; El Centro; Imperial County; Calipatria,92233,CA,El Centro,Imperial County,Calipatria
2352,96740,zip,92231; CA; El Centro; Imperial County; Calexico,92231,CA,El Centro,Imperial County,Calexico
2353,96739,zip,92230; CA; Riverside-San Bernardino-Ontario; Riverside County; Cabazon,92230,CA,Riverside-San Bernardino-Ontario,Riverside County,Cabazon
2354,96738,zip,92227; CA; El Centro; Imperial County; Brawley,92227,CA,El Centro,Imperial County,Brawley
2355,96736,zip,92225; CA; Riverside-San Bernardino-Ontario; Riverside County; Blythe,92225,CA,Riverside-San Bernardino-Ontario,Riverside County,Blythe
2357,96733,zip,92220; CA; Riverside-San Bernardino-Ontario; Riverside County; Banning,92220,CA,Riverside-San Bernardino-Ontario,Riverside County,Banning
2362,96707,zip,92173; CA; San Diego-Carlsbad; San Diego County; San Diego,92173,CA,San Diego-Carlsbad,San Diego County,San Diego
2379,96663,zip,92121; CA; San Diego-Carlsbad; San Diego County; San Diego,92121,CA,San Diego-Carlsbad,San Diego County,San Diego
2381,96661,zip,92119; CA; San Diego-Carlsbad; San Diego County; San Diego,92119,CA,San Diego-Carlsbad,San Diego County,San Diego
2401,96639,zip,92091; CA; San Diego-Carlsbad; San Diego County; Rancho Santa Fe,92091,CA,San Diego-Carlsbad,San Diego County,Rancho Santa Fe
2402,96636,zip,92086; CA; San Diego-Carlsbad; San Diego County; Warner Springs,92086,CA,San Diego-Carlsbad,San Diego County,Warner Springs
2404,96633,zip,92083; CA; San Diego-Carlsbad; San Diego County; Vista,92083,CA,San Diego-Carlsbad,San Diego County,Vista
2405,96632,zip,92082; CA; San Diego-Carlsbad; San Diego County; Valley Center,92082,CA,San Diego-Carlsbad,San Diego County,Valley Center
2410,96624,zip,92070; CA; San Diego-Carlsbad; San Diego County; Santa Ysabel,92070,CA,San Diego-Carlsbad,San Diego County,Santa Ysabel
2412,96621,zip,92067; CA; San Diego-Carlsbad; San Diego County; Rancho Santa Fe,92067,CA,San Diego-Carlsbad,San Diego County,Rancho Santa Fe
2413,96620,zip,92066; CA; San Diego-Carlsbad; San Diego County; Ranchita,92066,CA,San Diego-Carlsbad,San Diego County,Ranchita
2417,96617,zip,92061; CA; San Diego-Carlsbad; San Diego County; Pauma Valley,92061,CA,San Diego-Carlsbad,San Diego County,Pauma Valley
2418,96616,zip,92060; CA; San Diego-Carlsbad; San Diego County; Palomar Mountain,92060,CA,San Diego-Carlsbad,San Diego County,Palomar Mountain
2419,96615,zip,92059; CA; San Diego-Carlsbad; San Diego County; Pala,92059,CA,San Diego-Carlsbad,San Diego County,Pala
2427,96601,zip,92036; CA; San Diego-Carlsbad; San Diego County; Julian,92036,CA,San Diego-Carlsbad,San Diego County,Julian
2445,96580,zip,92007; CA; San Diego-Carlsbad; San Diego County; Encinitas,92007,CA,San Diego-Carlsbad,San Diego County,Encinitas
2446,96579,zip,92004; CA; San Diego-Carlsbad; San Diego County; Borrego Springs,92004,CA,San Diego-Carlsbad,San Diego County,Borrego Springs
2447,96578,zip,92003; CA; San Diego-Carlsbad; San Diego County; Bonsall,92003,CA,San Diego-Carlsbad,San Diego County,Bonsall
2448,96575,zip,91980; CA; San Diego-Carlsbad; San Diego County; Tecate,91980,CA,San Diego-Carlsbad,San Diego County,Tecate
2449,96573,zip,91978; CA; San Diego-Carlsbad; San Diego County; Spring Valley,91978,CA,San Diego-Carlsbad,San Diego County,Spring Valley
2451,96570,zip,91963; CA; San Diego-Carlsbad; San Diego County; Potrero,91963,CA,San Diego-Carlsbad,San Diego County,Potrero
2453,96569,zip,91962; CA; San Diego-Carlsbad; San Diego County; Descanso,91962,CA,San Diego-Carlsbad,San Diego County,Descanso
2454,96567,zip,91950; CA; San Diego-Carlsbad; San Diego County; National City,91950,CA,San Diego-Carlsbad,San Diego County,National City
2455,96566,zip,91948; CA; San Diego-Carlsbad; San Diego County; Mount Laguna,91948,CA,San Diego-Carlsbad,San Diego County,Mount Laguna
2460,96558,zip,91935; CA; San Diego-Carlsbad; San Diego County; Jamul,91935,CA,San Diego-Carlsbad,San Diego County,Jamul
2461,96557,zip,91934; CA; San Diego-Carlsbad; San Diego County; Jacumba,91934,CA,San Diego-Carlsbad,San Diego County,Jacumba
2463,96554,zip,91931; CA; San Diego-Carlsbad; San Diego County; Descanso,91931,CA,San Diego-Carlsbad,San Diego County,Descanso
2464,96552,zip,91917; CA; San Diego-Carlsbad; San Diego County; Dulzura,91917,CA,San Diego-Carlsbad,San Diego County,Dulzura
2465,96551,zip,91916; CA; San Diego-Carlsbad; San Diego County; Descanso,91916,CA,San Diego-Carlsbad,San Diego County,Descanso
2472,96542,zip,91906; CA; San Diego-Carlsbad; San Diego County; Campo,91906,CA,San Diego-Carlsbad,San Diego County,Campo
2473,96541,zip,91905; CA; San Diego-Carlsbad; San Diego County; Boulevard,91905,CA,San Diego-Carlsbad,San Diego County,Boulevard
2475,96539,zip,91902; CA; San Diego-Carlsbad; San Diego County; Bonita,91902,CA,San Diego-Carlsbad,San Diego County,Bonita
2477,96533,zip,91803; CA; Los Angeles-Long Beach-Anaheim; Los Angeles County; Alhambra,91803,CA,Los Angeles-Long Beach-Anaheim,Los Angeles County,Alhambra
2487,96515,zip,91776; CA; Los Angeles-Long Beach-Anaheim; Los Angeles County; San Gabriel,91776,CA,Los Angeles-Long Beach-Anaheim,Los Angeles County,San Gabriel
2490,96510,zip,91770; CA; Los Angeles-Long Beach-Anaheim; Los Angeles County; Rosemead,91770,CA,Los Angeles-Long Beach-Anaheim,Los Angeles County,Rosemead
2492,96508,zip,91768; CA; Los Angeles-Long Beach-Anaheim; Los Angeles County; Pomona,91768,CA,Los Angeles-Long Beach-Anaheim,Los Angeles County,Pomona
2497,96503,zip,91763; CA; Riverside-San Bernardino-Ontario; San Bernardino County; Montclair,91763,CA,Riverside-San Bernardino-Ontario,San Bernardino County,Montclair
2500,96500,zip,91759; CA; Riverside-San Bernardino-Ontario; San Bernardino County; Lytle Creek,91759,CA,Riverside-San Bernardino-Ontario,San Bernardino County,Lytle Creek
2503,96497,zip,91755; CA; Los Angeles-Long Beach-Anaheim; Los Angeles County; Monterey Park,91755,CA,Los Angeles-Long Beach-Anaheim,Los Angeles County,Monterey Park
2504,96496,zip,91754; CA; Los Angeles-Long Beach-Anaheim; Los Angeles County; Monterey Park,91754,CA,Los Angeles-Long Beach-Anaheim,Los Angeles County,Monterey Park
2505,96495,zip,91752; CA; Riverside-San Bernardino-Ontario; Riverside County; Eastvale,91752,CA,Riverside-San Bernardino-Ontario,Riverside County,Eastvale
2507,96492,zip,91748; CA; Los Angeles-Long Beach-Anaheim; Los Angeles County; Rowland Heights,91748,CA,Los Angeles-Long Beach-Anaheim,Los Angeles County,Rowland Heights
2508,96490,zip,91746; CA; Los Angeles-Long Beach-Anaheim; Los Angeles County; West Puente Valley,91746,CA,Los Angeles-Long Beach-Anaheim,Los Angeles County,West Puente Valley
2510,96488,zip,91744; CA; Los Angeles-Long Beach-Anaheim; Los Angeles County; La Puente,91744,CA,Los Angeles-Long Beach-Anaheim,Los Angeles County,La Puente
2512,96485,zip,91740; CA; Los Angeles-Long Beach-Anaheim; Los Angeles County; Glendora,91740,CA,Los Angeles-Long Beach-Anaheim,Los Angeles County,Glendora
2515,96480,zip,91733; CA; Los Angeles-Long Beach-Anaheim; Los Angeles County; South El Monte,91733,CA,Los Angeles-Long Beach-Anaheim,Los Angeles County,South El Monte
2517,96479,zip,91732; CA; Los Angeles-Long Beach-Anaheim; Los Angeles County; El Monte,91732,CA,Los Angeles-Long Beach-Anaheim,Los Angeles County,El Monte
2518,96478,zip,91731; CA; Los Angeles-Long Beach-Anaheim; Los Angeles County; El Monte,91731,CA,Los Angeles-Long Beach-Anaheim,Los Angeles County,El Monte
2520,96475,zip,91724; CA; Los Angeles-Long Beach-Anaheim; Los Angeles County; Covina,91724,CA,Los Angeles-Long Beach-Anaheim,Los Angeles County,Covina
2526,96466,zip,91708; CA; Riverside-San Bernardino-Ontario; San Bernardino County; Chino,91708,CA,Riverside-San Bernardino-Ontario,San Bernardino County,Chino
2527,96465,zip,91706; CA; Los Angeles-Long Beach-Anaheim; Los Angeles County; Baldwin Park,91706,CA,Los Angeles-Long Beach-Anaheim,Los Angeles County,Baldwin Park
2539,96438,zip,91506; CA; Los Angeles-Long Beach-Anaheim; Los Angeles County; Burbank,91506,CA,Los Angeles-Long Beach-Anaheim,Los Angeles County,Burbank
2541,96436,zip,91504; CA; Los Angeles-Long Beach-Anaheim; Los Angeles County; Burbank,91504,CA,Los Angeles-Long Beach-Anaheim,Los Angeles County,Burbank
2551,96411,zip,91402; CA; Los Angeles-Long Beach-Anaheim; Los Angeles County; Los Angeles,91402,CA,Los Angeles-Long Beach-Anaheim,Los Angeles County,Los Angeles
2554,96403,zip,91390; CA; Los Angeles-Long Beach-Anaheim; Los Angeles County; Santa Clarita,91390,CA,Los Angeles-Long Beach-Anaheim,Los Angeles County,Santa Clarita
2557,96398,zip,91384; CA; Los Angeles-Long Beach-Anaheim; Los Angeles County; Castaic,91384,CA,Los Angeles-Long Beach-Anaheim,Los Angeles County,Castaic
2563,96385,zip,91362; CA; Oxnard-Thousand Oaks-Ventura; Ventura County; Thousand Oaks,91362,CA,Oxnard-Thousand Oaks-Ventura,Ventura County,Thousand Oaks
2564,96384,zip,91361; CA; Oxnard-Thousand Oaks-Ventura; Ventura County; Westlake Village,91361,CA,Oxnard-Thousand Oaks-Ventura,Ventura County,Westlake Village
2569,96375,zip,91352; CA; Los Angeles-Long Beach-Anaheim; Los Angeles County; Los Angeles,91352,CA,Los Angeles-Long Beach-Anaheim,Los Angeles County,Los Angeles
2571,96373,zip,91350; CA; Los Angeles-Long Beach-Anaheim; Los Angeles County; Santa Clarita,91350,CA,Los Angeles-Long Beach-Anaheim,Los Angeles County,Santa Clarita
2572,96371,zip,91345; CA; Los Angeles-Long Beach-Anaheim; Los Angeles County; Los Angeles,91345,CA,Los Angeles-Long Beach-Anaheim,Los Angeles County,Los Angeles
2576,96366,zip,91340; CA; Los Angeles-Long Beach-Anaheim; Los Angeles County; San Fernando,91340,CA,Los Angeles-Long Beach-Anaheim,Los Angeles County,San Fernando
2578,96361,zip,91331; CA; Los Angeles-Long Beach-Anaheim; Los Angeles County; Los Angeles,91331,CA,Los Angeles-Long Beach-Anaheim,Los Angeles County,Los Angeles
2594,96329,zip,91210; CA; Los Angeles-Long Beach-Anaheim; Los Angeles County; Glendale,91210,CA,Los Angeles-Long Beach-Anaheim,Los Angeles County,Glendale
2595,96327,zip,91208; CA; Los Angeles-Long Beach-Anaheim; Los Angeles County; Glendale,91208,CA,Los Angeles-Long Beach-Anaheim,Los Angeles County,Glendale
2596,96326,zip,91207; CA; Los Angeles-Long Beach-Anaheim; Los Angeles County; Glendale,91207,CA,Los Angeles-Long Beach-Anaheim,Los Angeles County,Glendale
2599,96323,zip,91204; CA; Los Angeles-Long Beach-Anaheim; Los Angeles County; Glendale,91204,CA,Los Angeles-Long Beach-Anaheim,Los Angeles County,Glendale
2600,96322,zip,91203; CA; Los Angeles-Long Beach-Anaheim; Los Angeles County; Glendale,91203,CA,Los Angeles-Long Beach-Anaheim,Los Angeles County,Glendale
2609,96293,zip,91105; CA; Los Angeles-Long Beach-Anaheim; Los Angeles County; Pasadena,91105,CA,Los Angeles-Long Beach-Anaheim,Los Angeles County,Pasadena
2614,96284,zip,91042; CA; Los Angeles-Long Beach-Anaheim; Los Angeles County; Los Angeles,91042,CA,Los Angeles-Long Beach-Anaheim,Los Angeles County,Los Angeles
2615,96282,zip,91040; CA; Los Angeles-Long Beach-Anaheim; Los Angeles County; Los Angeles,91040,CA,Los Angeles-Long Beach-Anaheim,Los Angeles County,Los Angeles
2616,96280,zip,91030; CA; Los Angeles-Long Beach-Anaheim; Los Angeles County; South Pasadena,91030,CA,Los Angeles-Long Beach-Anaheim,Los Angeles County,South Pasadena
2618,96278,zip,91024; CA; Los Angeles-Long Beach-Anaheim; Los Angeles County; Sierra Madre,91024,CA,Los Angeles-Long Beach-Anaheim,Los Angeles County,Sierra Madre
2619,96275,zip,91020; CA; Los Angeles-Long Beach-Anaheim; Los Angeles County; La Crescenta-Montrose,91020,CA,Los Angeles-Long Beach-Anaheim,Los Angeles County,La Crescenta-Montrose
2630,96244,zip,90810; CA; Los Angeles-Long Beach-Anaheim; Los Angeles County; Long Beach,90810,CA,Los Angeles-Long Beach-Anaheim,Los Angeles County,Long Beach
2640,96230,zip,90746; CA; Los Angeles-Long Beach-Anaheim; Los Angeles County; Carson,90746,CA,Los Angeles-Long Beach-Anaheim,Los Angeles County,Carson
2642,96228,zip,90744; CA; Los Angeles-Long Beach-Anaheim; Los Angeles County; Los Angeles,90744,CA,Los Angeles-Long Beach-Anaheim,Los Angeles County,Los Angeles
2643,96227,zip,90743; CA; Los Angeles-Long Beach-Anaheim; Orange County; Seal Beach,90743,CA,Los Angeles-Long Beach-Anaheim,Orange County,Seal Beach
2644,96226,zip,90742; CA; Los Angeles-Long Beach-Anaheim; Orange County; Huntington Beach,90742,CA,Los Angeles-Long Beach-Anaheim,Orange County,Huntington Beach
2646,96222,zip,90732; CA; Los Angeles-Long Beach-Anaheim; Los Angeles County; Los Angeles,90732,CA,Los Angeles-Long Beach-Anaheim,Los Angeles County,Los Angeles
2648,96220,zip,90723; CA; Los Angeles-Long Beach-Anaheim; Los Angeles County; Paramount,90723,CA,Los Angeles-Long Beach-Anaheim,Los Angeles County,Paramount
2652,96216,zip,90716; CA; Los Angeles-Long Beach-Anaheim; Los Angeles County; Hawaiian Gardens,90716,CA,Los Angeles-Long Beach-Anaheim,Los Angeles County,Hawaiian Gardens
2653,96215,zip,90715; CA; Los Angeles-Long Beach-Anaheim; Los Angeles County; Lakewood,90715,CA,Los Angeles-Long Beach-Anaheim,Los Angeles County,Lakewood
2655,96212,zip,90712; CA; Los Angeles-Long Beach-Anaheim; Los Angeles County; Lakewood,90712,CA,Los Angeles-Long Beach-Anaheim,Los Angeles County,Lakewood
2658,96207,zip,90704; CA; Los Angeles-Long Beach-Anaheim; Los Angeles County; Avalon,90704,CA,Los Angeles-Long Beach-Anaheim,Los Angeles County,Avalon
2660,96204,zip,90701; CA; Los Angeles-Long Beach-Anaheim; Los Angeles County; Artesia,90701,CA,Los Angeles-Long Beach-Anaheim,Los Angeles County,Artesia
2662,96201,zip,90670; CA; Los Angeles-Long Beach-Anaheim; Los Angeles County; Santa Fe Springs,90670,CA,Los Angeles-Long Beach-Anaheim,Los Angeles County,Santa Fe Springs
2664,96197,zip,90660; CA; Los Angeles-Long Beach-Anaheim; Los Angeles County; Pico Rivera,90660,CA,Los Angeles-Long Beach-Anaheim,Los Angeles County,Pico Rivera
2665,96193,zip,90650; CA; Los Angeles-Long Beach-Anaheim; Los Angeles County; Norwalk,90650,CA,Los Angeles-Long Beach-Anaheim,Los Angeles County,Norwalk
2666,96192,zip,90640; CA; Los Angeles-Long Beach-Anaheim; Los Angeles County; Montebello,90640,CA,Los Angeles-Long Beach-Anaheim,Los Angeles County,Montebello
2671,96183,zip,90623; CA; Los Angeles-Long Beach-Anaheim; Orange County; La Palma,90623,CA,Los Angeles-Long Beach-Anaheim,Orange County,La Palma
2675,96174,zip,90606; CA; Los Angeles-Long Beach-Anaheim; Los Angeles County; Whittier,90606,CA,Los Angeles-Long Beach-Anaheim,Los Angeles County,Whittier
2676,96173,zip,90605; CA; Los Angeles-Long Beach-Anaheim; Los Angeles County; Whittier,90605,CA,Los Angeles-Long Beach-Anaheim,Los Angeles County,Whittier
2677,96172,zip,90604; CA; Los Angeles-Long Beach-Anaheim; Los Angeles County; Whittier,90604,CA,Los Angeles-Long Beach-Anaheim,Los Angeles County,Whittier
2678,96171,zip,90603; CA; Los Angeles-Long Beach-Anaheim; Los Angeles County; Whittier,90603,CA,Los Angeles-Long Beach-Anaheim,Los Angeles County,Whittier
2684,96160,zip,90502; CA; Los Angeles-Long Beach-Anaheim; Los Angeles County; West Carson,90502,CA,Los Angeles-Long Beach-Anaheim,Los Angeles County,West Carson
2692,96137,zip,90305; CA; Los Angeles-Long Beach-Anaheim; Los Angeles County; Inglewood,90305,CA,Los Angeles-Long Beach-Anaheim,Los Angeles County,Inglewood
2693,96136,zip,90304; CA; Los Angeles-Long Beach-Anaheim; Los Angeles County; Inglewood,90304,CA,Los Angeles-Long Beach-Anaheim,Los Angeles County,Inglewood
2694,96135,zip,90303; CA; Los Angeles-Long Beach-Anaheim; Los Angeles County; Inglewood,90303,CA,Los Angeles-Long Beach-Anaheim,Los Angeles County,Inglewood
2695,96134,zip,90302; CA; Los Angeles-Long Beach-Anaheim; Los Angeles County; Inglewood,90302,CA,Los Angeles-Long Beach-Anaheim,Los Angeles County,Inglewood
2696,96133,zip,90301; CA; Los Angeles-Long Beach-Anaheim; Los Angeles County; Inglewood,90301,CA,Los Angeles-Long Beach-Anaheim,Los Angeles County,Inglewood
2700,96126,zip,90290; CA; Los Angeles-Long Beach-Anaheim; Los Angeles County; Topanga,90290,CA,Los Angeles-Long Beach-Anaheim,Los Angeles County,Topanga
2701,96125,zip,90280; CA; Los Angeles-Long Beach-Anaheim; Los Angeles County; South Gate,90280,CA,Los Angeles-Long Beach-Anaheim,Los Angeles County,South Gate
2707,96119,zip,90270; CA; Los Angeles-Long Beach-Anaheim; Los Angeles County; Maywood,90270,CA,Los Angeles-Long Beach-Anaheim,Los Angeles County,Maywood
2710,96113,zip,90262; CA; Los Angeles-Long Beach-Anaheim; Los Angeles County; Lynwood,90262,CA,Los Angeles-Long Beach-Anaheim,Los Angeles County,Lynwood
2711,96111,zip,90260; CA; Los Angeles-Long Beach-Anaheim; Los Angeles County; Lawndale,90260,CA,Los Angeles-Long Beach-Anaheim,Los Angeles County,Lawndale
2712,96110,zip,90255; CA; Los Angeles-Long Beach-Anaheim; Los Angeles County; Huntington Park,90255,CA,Los Angeles-Long Beach-Anaheim,Los Angeles County,Huntington Park
2715,96106,zip,90249; CA; Los Angeles-Long Beach-Anaheim; Los Angeles County; Gardena,90249,CA,Los Angeles-Long Beach-Anaheim,Los Angeles County,Gardena
2716,96105,zip,90248; CA; Los Angeles-Long Beach-Anaheim; Los Angeles County; Los Angeles,90248,CA,Los Angeles-Long Beach-Anaheim,Los Angeles County,Los Angeles
2717,96104,zip,90247; CA; Los Angeles-Long Beach-Anaheim; Los Angeles County; Gardena,90247,CA,Los Angeles-Long Beach-Anaheim,Los Angeles County,Gardena
2720,96101,zip,90241; CA; Los Angeles-Long Beach-Anaheim; Los Angeles County; Downey,90241,CA,Los Angeles-Long Beach-Anaheim,Los Angeles County,Downey
2721,96100,zip,90240; CA; Los Angeles-Long Beach-Anaheim; Los Angeles County; Downey,90240,CA,Los Angeles-Long Beach-Anaheim,Los Angeles County,Downey
2726,96092,zip,90222; CA; Los Angeles-Long Beach-Anaheim; Los Angeles County; Compton,90222,CA,Los Angeles-Long Beach-Anaheim,Los Angeles County,Compton
2727,96091,zip,90221; CA; Los Angeles-Long Beach-Anaheim; Los Angeles County; Compton,90221,CA,Los Angeles-Long Beach-Anaheim,Los Angeles County,Compton
2728,96090,zip,90220; CA; Los Angeles-Long Beach-Anaheim; Los Angeles County; Compton,90220,CA,Los Angeles-Long Beach-Anaheim,Los Angeles County,Compton
2743,96044,zip,90063; CA; Los Angeles-Long Beach-Anaheim; Los Angeles County; East Los Angeles,90063,CA,Los Angeles-Long Beach-Anaheim,Los Angeles County,East Los Angeles
2744,96043,zip,90062; CA; Los Angeles-Long Beach-Anaheim; Los Angeles County; Los Angeles,90062,CA,Los Angeles-Long Beach-Anaheim,Los Angeles County,Los Angeles
2745,96042,zip,90061; CA; Los Angeles-Long Beach-Anaheim; Los Angeles County; Los Angeles,90061,CA,Los Angeles-Long Beach-Anaheim,Los Angeles County,Los Angeles
2746,96040,zip,90059; CA; Los Angeles-Long Beach-Anaheim; Los Angeles County; Los Angeles,90059,CA,Los Angeles-Long Beach-Anaheim,Los Angeles County,Los Angeles
2748,96039,zip,90058; CA; Los Angeles-Long Beach-Anaheim; Los Angeles County; Los Angeles,90058,CA,Los Angeles-Long Beach-Anaheim,Los Angeles County,Los Angeles
2749,96038,zip,90057; CA; Los Angeles-Long Beach-Anaheim; Los Angeles County; Los Angeles,90057,CA,Los Angeles-Long Beach-Anaheim,Los Angeles County,Los Angeles
2750,96037,zip,90056; CA; Los Angeles-Long Beach-Anaheim; Los Angeles County; Ladera Heights,90056,CA,Los Angeles-Long Beach-Anaheim,Los Angeles County,Ladera Heights
2757,96025,zip,90044; CA; Los Angeles-Long Beach-Anaheim; Los Angeles County; Los Angeles,90044,CA,Los Angeles-Long Beach-Anaheim,Los Angeles County,Los Angeles
2758,96024,zip,90043; CA; Los Angeles-Long Beach-Anaheim; Los Angeles County; Los Angeles,90043,CA,Los Angeles-Long Beach-Anaheim,Los Angeles County,Los Angeles
2761,96021,zip,90040; CA; Los Angeles-Long Beach-Anaheim; Los Angeles County; Commerce,90040,CA,Los Angeles-Long Beach-Anaheim,Los Angeles County,Commerce
2769,96014,zip,90033; CA; Los Angeles-Long Beach-Anaheim; Los Angeles County; Los Angeles,90033,CA,Los Angeles-Long Beach-Anaheim,Los Angeles County,Los Angeles
2771,96012,zip,90031; CA; Los Angeles-Long Beach-Anaheim; Los Angeles County; Los Angeles,90031,CA,Los Angeles-Long Beach-Anaheim,Los Angeles County,Los Angeles
2778,96004,zip,90023; CA; Los Angeles-Long Beach-Anaheim; Los Angeles County; Los Angeles,90023,CA,Los Angeles-Long Beach-Anaheim,Los Angeles County,Los Angeles
2779,96003,zip,90022; CA; Los Angeles-Long Beach-Anaheim; Los Angeles County; East Los Angeles,90022,CA,Los Angeles-Long Beach-Anaheim,Los Angeles County,East Los Angeles
2780,96002,zip,90021; CA; Los Angeles-Long Beach-Anaheim; Los Angeles County; Los Angeles,90021,CA,Los Angeles-Long Beach-Anaheim,Los Angeles County,Los Angeles
2789,95995,zip,90014; CA; Los Angeles-Long Beach-Anaheim; Los Angeles County; Los Angeles,90014,CA,Los Angeles-Long Beach-Anaheim,Los Angeles County,Los Angeles
2793,95991,zip,90010; CA; Los Angeles-Long Beach-Anaheim; Los Angeles County; Los Angeles,90010,CA,Los Angeles-Long Beach-Anaheim,Los Angeles County,Los Angeles
2794,95989,zip,90008; CA; Los Angeles-Long Beach-Anaheim; Los Angeles County; Los Angeles,90008,CA,Los Angeles-Long Beach-Anaheim,Los Angeles County,Los Angeles
2799,95984,zip,90003; CA; Los Angeles-Long Beach-Anaheim; Los Angeles County; Los Angeles,90003,CA,Los Angeles-Long Beach-Anaheim,Los Angeles County,Los Angeles
2800,95983,zip,90002; CA; Los Angeles-Long Beach-Anaheim; Los Angeles County; Los Angeles,90002,CA,Los Angeles-Long Beach-Anaheim,Los Angeles County,Los Angeles
2801,95982,zip,90001; CA; Los Angeles-Long Beach-Anaheim; Los Angeles County; Florence-Graham,90001,CA,Los Angeles-Long Beach-Anaheim,Los Angeles County,Florence-Graham
